{"type":"FeatureCollection","features":[{"type":"Feature","id":1,"geometry":{"type":"Point","coordinates":[-74.14843017857888,4.554343629681426]},"properties":{"OBJECTID":1,"LECCODIGO":1,"LECDIRECCI":"KR 18 Q No. 68 B Sur 10","LECCODLOC":"19","LECNOMLOC":"Ciudad Bolívar","LECANIO":"2018","LECUBICACI":"Cra 18q # 68b Sur 10.\n Barrio Juan Pablo II","LECOBSERV":"Resolución 400 de 23 de Agosto de 2018","LECTEMATIC":"N.A","LECTIPOFOR":"Sin Información","LECDIMMURO":"N.A","LECCODIDRD":"N.A","LECIMAGEN1":"http://cultured.scrd.gov.co/cultured/sites/default/files/documents/mapas_direc/ArteUrbano/CultCiud/TC2018/01.InkCrew.png","LECIMAGEN2":"N.A","LECIMAGEN3":"N.A","LECIMAGEN4":"N.A","LECIMAGEN5":"N.A","LECNOMARTI":"INK CREW","LECTITOBRA":"SEMILLA DE MEMORIA URBANA","LECNOMPRO":"CORREDOR ARTÍSTICO TRANSMICABLE"}},{"type":"Feature","id":2,"geometry":{"type":"Point","coordinates":[-74.14763482819264,4.554808811975803]},"properties":{"OBJECTID":2,"LECCODIGO":2,"LECDIRECCI":"KR 18 Q No. 67 C - 47 sur","LECCODLOC":"19","LECNOMLOC":"Ciudad Bolívar","LECANIO":"2018","LECUBICACI":"Jardín Infantil Cr 18 q No. 67c-47 sur (pared interna lateral). Barrio Juan Pablo II","LECOBSERV":"Resolución 400 de 23 de Agosto de 2018","LECTEMATIC":"N.A","LECTIPOFOR":"Sin Información","LECDIMMURO":"N.A","LECCODIDRD":"N.A","LECIMAGEN1":"http://cultured.scrd.gov.co/cultured/sites/default/files/documents/mapas_direc/ArteUrbano/CultCiud/TC2018/02.Survamos.png","LECIMAGEN2":"N.A","LECIMAGEN3":"N.A","LECIMAGEN4":"N.A","LECIMAGEN5":"N.A","LECNOMARTI":"SURVAMOS","LECTITOBRA":"UN LUGAR PARA CADA COSA","LECNOMPRO":"CORREDOR ARTÍSTICO TRANSMICABLE"}},{"type":"Feature","id":3,"geometry":{"type":"Point","coordinates":[-74.14779367279273,4.554798702026367]},"properties":{"OBJECTID":3,"LECCODIGO":3,"LECDIRECCI":"CL 67 bis sur No. 18 Q - 31","LECCODLOC":"19","LECNOMLOC":"Ciudad Bolívar","LECANIO":"2018","LECUBICACI":"Calle 67 bis sur 18q-31 .\nBarrio Juan Pablo II","LECOBSERV":"Resolución 400 de 23 de Agosto de 2018","LECTEMATIC":"N.A","LECTIPOFOR":"Sin Información","LECDIMMURO":"N.A","LECCODIDRD":"N.A","LECIMAGEN1":"http://cultured.scrd.gov.co/cultured/sites/default/files/documents/mapas_direc/ArteUrbano/CultCiud/TC2018/03.ColectivoArtoArte.png","LECIMAGEN2":"N.A","LECIMAGEN3":"N.A","LECIMAGEN4":"N.A","LECIMAGEN5":"N.A","LECNOMARTI":"COLECTIVO ARTO ARTE","LECTITOBRA":"LOS RASGOS DE MI BARRIO","LECNOMPRO":"CORREDOR ARTÍSTICO TRANSMICABLE"}},{"type":"Feature","id":4,"geometry":{"type":"Point","coordinates":[-74.14746947080671,4.554533986963045]},"properties":{"OBJECTID":4,"LECCODIGO":4,"LECDIRECCI":"CL 67 C sur No. 18p-79 y KR 18 Q No. 67 C - 24 Sur","LECCODLOC":"19","LECNOMLOC":"Ciudad Bolívar","LECANIO":"2018","LECUBICACI":"Calle 67c sur No. 18p-79.\nCra 18q # 67c-24s. Barrio Juan Pablo II","LECOBSERV":"Resolución 400 de 23 de Agosto de 2018","LECTEMATIC":"N.A","LECTIPOFOR":"Sin Información","LECDIMMURO":"N.A","LECCODIDRD":"N.A","LECIMAGEN1":"http://cultured.scrd.gov.co/cultured/sites/default/files/documents/mapas_direc/ArteUrbano/CultCiud/TC2018/04.TheWalkers.png","LECIMAGEN2":"http://cultured.scrd.gov.co/cultured/sites/default/files/documents/mapas_direc/ArteUrbano/CultCiud/TC2018/05.TheWalkers.png","LECIMAGEN3":"N.A","LECIMAGEN4":"N.A","LECIMAGEN5":"N.A","LECNOMARTI":"THE WALKERS","LECTITOBRA":"ENTRE MIRADAS","LECNOMPRO":"CORREDOR ARTÍSTICO TRANSMICABLE"}},{"type":"Feature","id":5,"geometry":{"type":"Point","coordinates":[-74.14777606491486,4.555603720412049]},"properties":{"OBJECTID":5,"LECCODIGO":5,"LECDIRECCI":"KR 18 P No. 67 C – 21 Sur","LECCODLOC":"19","LECNOMLOC":"Ciudad Bolívar","LECANIO":"2018","LECUBICACI":"Colegio Santa Barbara Cll 21 Cra 16 No. 67c. Barrio Juan Pablo II","LECOBSERV":"Resolución 400 de 23 de Agosto de 2018","LECTEMATIC":"N.A","LECTIPOFOR":"Sin Información","LECDIMMURO":"N.A","LECCODIDRD":"N.A","LECIMAGEN1":"http://cultured.scrd.gov.co/cultured/sites/default/files/documents/mapas_direc/ArteUrbano/CultCiud/TC2018/06.Aerosolcrew.png","LECIMAGEN2":"http://cultured.scrd.gov.co/cultured/sites/default/files/documents/mapas_direc/ArteUrbano/CultCiud/TC2018/07.Aerosolcrew.png","LECIMAGEN3":"N.A","LECIMAGEN4":"N.A","LECIMAGEN5":"N.A","LECNOMARTI":"AEROSOLCREW","LECTITOBRA":"PROSPERARTE","LECNOMPRO":"CORREDOR ARTÍSTICO TRANSMICABLE"}},{"type":"Feature","id":6,"geometry":{"type":"Point","coordinates":[-74.14788290334823,4.555125877470554]},"properties":{"OBJECTID":6,"LECCODIGO":6,"LECDIRECCI":"KR 18 Q No. 67 C Bis sur","LECCODLOC":"19","LECNOMLOC":"Ciudad Bolívar","LECANIO":"2018","LECUBICACI":"Culata lateral de Carrera 18q y Calle 67c Bis sur.\nBarrio Juan Pablo II","LECOBSERV":"Resolución 400 de 23 de Agosto de 2018","LECTEMATIC":"N.A","LECTIPOFOR":"Sin Información","LECDIMMURO":"N.A","LECCODIDRD":"N.A","LECIMAGEN1":"http://cultured.scrd.gov.co/cultured/sites/default/files/documents/mapas_direc/ArteUrbano/CultCiud/TC2018/08.DiversidadCultural.png","LECIMAGEN2":"N.A","LECIMAGEN3":"N.A","LECIMAGEN4":"N.A","LECIMAGEN5":"N.A","LECNOMARTI":"DIVERSIDAD CULTURAL","LECTITOBRA":"MEMORIA Y RELATOS DEL BARRIO JUAN PABLO II","LECNOMPRO":"CORREDOR ARTÍSTICO TRANSMICABLE"}},{"type":"Feature","id":7,"geometry":{"type":"Point","coordinates":[-74.14741890823262,4.555381669777911]},"properties":{"OBJECTID":7,"LECCODIGO":7,"LECDIRECCI":"KR 18 Q Bis B No. 67 A - 08 y CL 67 A No. 18 Q - 58","LECCODLOC":"19","LECNOMLOC":"Ciudad Bolívar","LECANIO":"2018","LECUBICACI":"Culata lateral Carrera 18q Bis b # 67a-08 y Culata lateral Calle 67a # 18q-58.\nBarrio Juan Pablo II","LECOBSERV":"Resolución 400 de 23 de Agosto de 2018","LECTEMATIC":"N.A","LECTIPOFOR":"Sin Información","LECDIMMURO":"N.A","LECCODIDRD":"N.A","LECIMAGEN1":"http://cultured.scrd.gov.co/cultured/sites/default/files/documents/mapas_direc/ArteUrbano/CultCiud/TC2018/09.HyntibaGraffiti.png","LECIMAGEN2":"N.A","LECIMAGEN3":"N.A","LECIMAGEN4":"N.A","LECIMAGEN5":"N.A","LECNOMARTI":"HYNTIBA GI3AFFITI","LECTITOBRA":"ARTE EN LOS AIRES DE LA MONTAÑA","LECNOMPRO":"CORREDOR ARTÍSTICO TRANSMICABLE"}},{"type":"Feature","id":8,"geometry":{"type":"Point","coordinates":[-74.14743080462193,4.554685676542565]},"properties":{"OBJECTID":8,"LECCODIGO":8,"LECDIRECCI":"CL 67 C sur No. 18 P - 81","LECCODLOC":"19","LECNOMLOC":"Ciudad Bolívar","LECANIO":"2018","LECUBICACI":"Culata posterior de Calle 67c sur No. 18p-81.\nBarrio Juan Pablo II","LECOBSERV":"Resolución 400 de 23 de Agosto de 2018","LECTEMATIC":"N.A","LECTIPOFOR":"Sin Información","LECDIMMURO":"N.A","LECCODIDRD":"N.A","LECIMAGEN1":"http://cultured.scrd.gov.co/cultured/sites/default/files/documents/mapas_direc/ArteUrbano/CultCiud/TC2018/10.InsaneCapsCrew.png","LECIMAGEN2":"N.A","LECIMAGEN3":"N.A","LECIMAGEN4":"N.A","LECIMAGEN5":"N.A","LECNOMARTI":"INSANE CAPS CREW (ISCREW)","LECTITOBRA":"TRANSMICABLE POR LA PAZ","LECNOMPRO":"CORREDOR ARTÍSTICO TRANSMICABLE"}},{"type":"Feature","id":9,"geometry":{"type":"Point","coordinates":[-74.09366996312552,4.576984828014044]},"properties":{"OBJECTID":9,"LECCODIGO":9,"LECDIRECCI":"Estación Intermedia Av. Primero de mayo","LECCODLOC":"15","LECNOMLOC":"Antonio Nariño.","LECANIO":"2018","LECUBICACI":"Estación Intermedia Av. Primero de mayo","LECOBSERV":"Resolución 371 de 10 de Agosto de 2018","LECTEMATIC":"N.A","LECTIPOFOR":"Sin Información","LECDIMMURO":"N.A","LECCODIDRD":"N.A","LECIMAGEN1":"N.A","LECIMAGEN2":"N.A","LECIMAGEN3":"N.A","LECIMAGEN4":"N.A","LECIMAGEN5":"N.A","LECNOMARTI":"COLECTIVO ARTO ARTE","LECTITOBRA":"CONECTANDO PRIMERO DE MAYO","LECNOMPRO":"MI TRANSMI CONSENTIDO - URBANISMO TACTICO MURAL"}},{"type":"Feature","id":10,"geometry":{"type":"Point","coordinates":[-74.06923040289564,4.615226356252844]},"properties":{"OBJECTID":10,"LECCODIGO":10,"LECDIRECCI":"Estación Museo Nacional","LECCODLOC":"3","LECNOMLOC":"Santa Fe","LECANIO":"2019","LECUBICACI":"Estación Museo Nacional","LECOBSERV":"Resolución 583 de 18 de Octubre de 2019","LECTEMATIC":"N.A","LECTIPOFOR":"GRAN ","LECDIMMURO":"N.A","LECCODIDRD":"N.A","LECIMAGEN1":"http://cultured.scrd.gov.co/cultured/sites/default/files/documents/mapas_direc/ArteUrbano/CultCiud/TR/01.AltaPresionCrew.jpg","LECIMAGEN2":"http://cultured.scrd.gov.co/cultured/sites/default/files/documents/mapas_direc/ArteUrbano/CultCiud/TR/02.AltaPresionCrew.jpg","LECIMAGEN3":"http://cultured.scrd.gov.co/cultured/sites/default/files/documents/mapas_direc/ArteUrbano/CultCiud/TR/03.AltaPresionCrew.png","LECIMAGEN4":"N.A","LECIMAGEN5":"N.A","LECNOMARTI":"ALTA PRESIÓN CREW","LECTITOBRA":"CIUDAD SIMBIOSIS","LECNOMPRO":"BECA ARTE URBANO EN TRANSMILENIO"}},{"type":"Feature","id":11,"geometry":{"type":"Point","coordinates":[-74.16943858315688,4.596959980759612]},"properties":{"OBJECTID":11,"LECCODIGO":11,"LECDIRECCI":"Portal del Sur","LECCODLOC":"7","LECNOMLOC":"Bosa","LECANIO":"2019","LECUBICACI":"Portal del Sur","LECOBSERV":"Resolución 583 de 18 de Octubre de 2019","LECTEMATIC":"N.A","LECTIPOFOR":"GRAN ","LECDIMMURO":"N.A","LECCODIDRD":"N.A","LECIMAGEN1":"http://cultured.scrd.gov.co/cultured/sites/default/files/documents/mapas_direc/ArteUrbano/CultCiud/TR/04.SinestadoStudio.jpg","LECIMAGEN2":"http://cultured.scrd.gov.co/cultured/sites/default/files/documents/mapas_direc/ArteUrbano/CultCiud/TR/05.SinestadoStudio.jpg","LECIMAGEN3":"N.A","LECIMAGEN4":"N.A","LECIMAGEN5":"N.A","LECNOMARTI":"SINESTADO STUDIO","LECTITOBRA":"TRANSMI-TIENDO","LECNOMPRO":"BECA ARTE URBANO EN TRANSMILENIO"}},{"type":"Feature","id":12,"geometry":{"type":"Point","coordinates":[-74.09419312577731,4.746356456812042]},"properties":{"OBJECTID":12,"LECCODIGO":12,"LECDIRECCI":"Portal Suba","LECCODLOC":"11","LECNOMLOC":"Suba","LECANIO":"2019","LECUBICACI":"Portal Suba","LECOBSERV":"Resolución 583 de 18 de Octubre de 2019","LECTEMATIC":"N.A","LECTIPOFOR":"GRAN ","LECDIMMURO":"N.A","LECCODIDRD":"N.A","LECIMAGEN1":"http://cultured.scrd.gov.co/cultured/sites/default/files/documents/mapas_direc/ArteUrbano/CultCiud/TR/06.Microhistorias.jpg","LECIMAGEN2":"http://cultured.scrd.gov.co/cultured/sites/default/files/documents/mapas_direc/ArteUrbano/CultCiud/TR/07.Microhistorias.jpg","LECIMAGEN3":"http://cultured.scrd.gov.co/cultured/sites/default/files/documents/mapas_direc/ArteUrbano/CultCiud/TR/07.1.Microhistorias.jpg","LECIMAGEN4":"http://cultured.scrd.gov.co/cultured/sites/default/files/documents/mapas_direc/ArteUrbano/CultCiud/TR/07.2.Microhistorias.jpg","LECIMAGEN5":"http://cultured.scrd.gov.co/cultured/sites/default/files/documents/mapas_direc/ArteUrbano/CultCiud/TR/07.3.Microhistorias.jpg","LECNOMARTI":"MICROHISTORIAS","LECTITOBRA":"“MICROHISTORIAS DE NUESTRO SISTEMA”","LECNOMPRO":"BECA ARTE URBANO EN TRANSMILENIO"}},{"type":"Feature","id":13,"geometry":{"type":"Point","coordinates":[-74.09423485342056,4.7466902691795925]},"properties":{"OBJECTID":13,"LECCODIGO":13,"LECDIRECCI":"Portal Suba","LECCODLOC":"11","LECNOMLOC":"Suba","LECANIO":"2019","LECUBICACI":"Portal Suba","LECOBSERV":"Resolución 583 de 18 de Octubre de 2019","LECTEMATIC":"N.A","LECTIPOFOR":"GRAN ","LECDIMMURO":"N.A","LECCODIDRD":"N.A","LECIMAGEN1":"http://cultured.scrd.gov.co/cultured/sites/default/files/documents/mapas_direc/ArteUrbano/CultCiud/TR/08.AsteroideEditorial.jpeg","LECIMAGEN2":"N.A","LECIMAGEN3":"N.A","LECIMAGEN4":"N.A","LECIMAGEN5":"N.A","LECNOMARTI":"ASTEROIDE EDITORIAL","LECTITOBRA":"TRANSEÚNTES","LECNOMPRO":"BECA ARTE URBANO EN TRANSMILENIO"}},{"type":"Feature","id":14,"geometry":{"type":"Point","coordinates":[-74.046056939007,4.754592475135837]},"properties":{"OBJECTID":14,"LECCODIGO":14,"LECDIRECCI":"Portal Norte","LECCODLOC":"1","LECNOMLOC":"Usaquén","LECANIO":"2019","LECUBICACI":"Portal Norte","LECOBSERV":"Resolución 583 de 18 de Octubre de 2019","LECTEMATIC":"N.A","LECTIPOFOR":"GRAN ","LECDIMMURO":"N.A","LECCODIDRD":"N.A","LECIMAGEN1":"http://cultured.scrd.gov.co/cultured/sites/default/files/documents/mapas_direc/ArteUrbano/CultCiud/TR/09.Mutuo.png","LECIMAGEN2":"http://cultured.scrd.gov.co/cultured/sites/default/files/documents/mapas_direc/ArteUrbano/CultCiud/TR/10.Mutuo.jpg","LECIMAGEN3":"http://cultured.scrd.gov.co/cultured/sites/default/files/documents/mapas_direc/ArteUrbano/CultCiud/TR/11.Mutuo.jpg","LECIMAGEN4":"N.A","LECIMAGEN5":"N.A","LECNOMARTI":"MUTUO","LECTITOBRA":"ESTACIONES DE DIALOGOS","LECNOMPRO":"BECA ARTE URBANO EN TRANSMILENIO"}},{"type":"Feature","id":15,"geometry":{"type":"Point","coordinates":[-74.11936165987707,4.531440907573662]},"properties":{"OBJECTID":15,"LECCODIGO":15,"LECDIRECCI":"Portal Usme","LECCODLOC":"5","LECNOMLOC":"Usme","LECANIO":"2019","LECUBICACI":"Portal Usme","LECOBSERV":"Resolución 583 de 18 de Octubre de 2019","LECTEMATIC":"N.A","LECTIPOFOR":"GRAN ","LECDIMMURO":"N.A","LECCODIDRD":"N.A","LECIMAGEN1":"http://cultured.scrd.gov.co/cultured/sites/default/files/documents/mapas_direc/ArteUrbano/CultCiud/TR/12.MesaGraffitiCandelaria.JPG","LECIMAGEN2":"http://cultured.scrd.gov.co/cultured/sites/default/files/documents/mapas_direc/ArteUrbano/CultCiud/TR/13.MesaGraffitiCandelaria.JPG","LECIMAGEN3":"http://cultured.scrd.gov.co/cultured/sites/default/files/documents/mapas_direc/ArteUrbano/CultCiud/TR/14.MesaGraffitiCandelaria.JPG","LECIMAGEN4":"N.A","LECIMAGEN5":"N.A","LECNOMARTI":"MESA GRAFFITI CANDELARIA","LECTITOBRA":"TRANSMI-SIENTE CON LA GENTE","LECNOMPRO":"BECA ARTE URBANO EN TRANSMILENIO"}},{"type":"Feature","id":16,"geometry":{"type":"Point","coordinates":[-74.06915233211093,4.615419731832638]},"properties":{"OBJECTID":16,"LECCODIGO":16,"LECDIRECCI":"Estación Museo Nacional","LECCODLOC":"3","LECNOMLOC":"Santa Fe","LECANIO":"2019","LECUBICACI":"Estación Museo Nacional","LECOBSERV":"Resolución 583 de 18 de Octubre de 2019","LECTEMATIC":"N.A","LECTIPOFOR":"GRAN ","LECDIMMURO":"N.A","LECCODIDRD":"N.A","LECIMAGEN1":"http://cultured.scrd.gov.co/cultured/sites/default/files/documents/mapas_direc/ArteUrbano/CultCiud/TR/15.Cuboscuro.png","LECIMAGEN2":"http://cultured.scrd.gov.co/cultured/sites/default/files/documents/mapas_direc/ArteUrbano/CultCiud/TR/16.Cuboscuro.jpg","LECIMAGEN3":"http://cultured.scrd.gov.co/cultured/sites/default/files/documents/mapas_direc/ArteUrbano/CultCiud/TR/17.Cuboscuro.jpg","LECIMAGEN4":"N.A","LECIMAGEN5":"N.A","LECNOMARTI":"CUBOSCURO","LECTITOBRA":"PERTENEZCO A BOGOTÁ","LECNOMPRO":"BECA ARTE URBANO EN TRANSMILENIO"}},{"type":"Feature","id":17,"geometry":{"type":"Point","coordinates":[-74.06932365341203,4.614977152255625]},"properties":{"OBJECTID":17,"LECCODIGO":17,"LECDIRECCI":"Estación Museo Nacional","LECCODLOC":"3","LECNOMLOC":"Santa Fe","LECANIO":"2019","LECUBICACI":"Estación Museo Nacional","LECOBSERV":"Resolución 583 de 18 de Octubre de 2019","LECTEMATIC":"N.A","LECTIPOFOR":"GRAN ","LECDIMMURO":"N.A","LECCODIDRD":"N.A","LECIMAGEN1":"http://cultured.scrd.gov.co/cultured/sites/default/files/documents/mapas_direc/ArteUrbano/CultCiud/TR/18.BajoControlAgenciaCultural.jpg","LECIMAGEN2":"http://cultured.scrd.gov.co/cultured/sites/default/files/documents/mapas_direc/ArteUrbano/CultCiud/TR/19.BajoControlAgenciaCultural.jpg","LECIMAGEN3":"http://cultured.scrd.gov.co/cultured/sites/default/files/documents/mapas_direc/ArteUrbano/CultCiud/TR/20.BajoControlAgenciaCultural.jpg","LECIMAGEN4":"N.A","LECIMAGEN5":"N.A","LECNOMARTI":"BAJO CONTROL AGENCIA CULTURAL","LECTITOBRA":"MATICES EN MOVIMIENTO","LECNOMPRO":"BECA ARTE URBANO EN TRANSMILENIO"}},{"type":"Feature","id":18,"geometry":{"type":"Point","coordinates":[-74.06909522531001,4.615623176155569]},"properties":{"OBJECTID":18,"LECCODIGO":18,"LECDIRECCI":"Estación Museo Nacional","LECCODLOC":"3","LECNOMLOC":"Santa Fe","LECANIO":"2019","LECUBICACI":"Estación Museo Nacional","LECOBSERV":"Resolución 583 de 18 de Octubre de 2019","LECTEMATIC":"N.A","LECTIPOFOR":"GRAN ","LECDIMMURO":"N.A","LECCODIDRD":"N.A","LECIMAGEN1":"http://cultured.scrd.gov.co/cultured/sites/default/files/documents/mapas_direc/ArteUrbano/CultCiud/TR/21.LaboratorioDelColor.PNG","LECIMAGEN2":"http://cultured.scrd.gov.co/cultured/sites/default/files/documents/mapas_direc/ArteUrbano/CultCiud/TR/22.LaboratorioDelColor.PNG","LECIMAGEN3":"http://cultured.scrd.gov.co/cultured/sites/default/files/documents/mapas_direc/ArteUrbano/CultCiud/TR/23.LaboratorioDelColor.PNG","LECIMAGEN4":"N.A","LECIMAGEN5":"N.A","LECNOMARTI":"LABORATORIO DEL COLOR","LECTITOBRA":"TRANSMILENIO TRANSFORMA","LECNOMPRO":"BECA ARTE URBANO EN TRANSMILENIO"}},{"type":"Feature","id":19,"geometry":{"type":"Point","coordinates":[-74.15879279964173,4.5504019646644664]},"properties":{"OBJECTID":19,"LECCODIGO":19,"LECDIRECCI":"CL 71 H sur No. 27 - 46","LECCODLOC":"19","LECNOMLOC":"Ciudad Bolívar","LECANIO":"2019","LECUBICACI":"Calle 71h sur # 27-46","LECOBSERV":"Resolución 507 de 13 de Septiembre de 2019","LECTEMATIC":"N.A","LECTIPOFOR":"MEDIANO ","LECDIMMURO":"N.A","LECCODIDRD":"N.A","LECIMAGEN1":"http://cultured.scrd.gov.co/cultured/sites/default/files/documents/mapas_direc/ArteUrbano/CultCiud/TC2019/10.TheWalkers.jpg","LECIMAGEN2":"N.A","LECIMAGEN3":"N.A","LECIMAGEN4":"N.A","LECIMAGEN5":"N.A","LECNOMARTI":"THE WALKERS","LECTITOBRA":"EL MIRADOR DEL FUTURO","LECNOMPRO":"CORREDOR ARTÍSTICO TRANSMICABLE 2019"}},{"type":"Feature","id":20,"geometry":{"type":"Point","coordinates":[-74.15889116696196,4.550608541090208]},"properties":{"OBJECTID":20,"LECCODIGO":20,"LECDIRECCI":"CL 71 G Bis No. 27 - 77","LECCODLOC":"19","LECNOMLOC":"Ciudad Bolívar","LECANIO":"2019","LECUBICACI":"Calle 71g Bis # 27-77","LECOBSERV":"Resolución 507 de 13 de Septiembre de 2019","LECTEMATIC":"N.A","LECTIPOFOR":"MEDIANO ","LECDIMMURO":"N.A","LECCODIDRD":"N.A","LECIMAGEN1":"http://cultured.scrd.gov.co/cultured/sites/default/files/documents/mapas_direc/ArteUrbano/CultCiud/TC2019/13.HyntybaGraffiti.jpg","LECIMAGEN2":"N.A","LECIMAGEN3":"N.A","LECIMAGEN4":"N.A","LECIMAGEN5":"N.A","LECNOMARTI":"HYNTIBA GRAFFITI","LECTITOBRA":"ARTE Y PAZ EN EL PARAISO","LECNOMPRO":"CORREDOR ARTÍSTICO TRANSMICABLE 2019"}},{"type":"Feature","id":21,"geometry":{"type":"Point","coordinates":[-74.13984498659507,4.571285429911416]},"properties":{"OBJECTID":21,"LECCODIGO":21,"LECDIRECCI":"Estación de TransMiCable- Portal Tunal","LECCODLOC":"19","LECNOMLOC":"Ciudad Bolívar","LECANIO":"2019","LECUBICACI":"Superficie de la Estación de TransMiCable- Portal Tunal","LECOBSERV":"Resolución 507 de 13 de Septiembre de 2019","LECTEMATIC":"N.A","LECTIPOFOR":"GRAN ","LECDIMMURO":"N.A","LECCODIDRD":"N.A","LECIMAGEN1":"http://cultured.scrd.gov.co/cultured/sites/default/files/documents/mapas_direc/ArteUrbano/CultCiud/TC2019/01.ABM.jpg","LECIMAGEN2":"http://cultured.scrd.gov.co/cultured/sites/default/files/documents/mapas_direc/ArteUrbano/CultCiud/TC2019/01.1.ABM.jpg","LECIMAGEN3":"N.A","LECIMAGEN4":"N.A","LECIMAGEN5":"N.A","LECNOMARTI":"ABM CREW","LECTITOBRA":"CONSTRUYENDO FUTURO EN COMUNIDAD","LECNOMPRO":"CORREDOR ARTÍSTICO TRANSMICABLE 2019"}},{"type":"Feature","id":22,"geometry":{"type":"Point","coordinates":[-74.15863809627508,4.551190979424571]},"properties":{"OBJECTID":22,"LECCODIGO":22,"LECDIRECCI":"CL 71 F Bis No. 27 - 48 y KR 27 C No. 71 F bis - 29","LECCODLOC":"19","LECNOMLOC":"Ciudad Bolívar","LECANIO":"2019","LECUBICACI":"Calle 71f bis # 27-48 y Carrera 27 c 71f bis-29","LECOBSERV":"Resolución 507 de 13 de Septiembre de 2019","LECTEMATIC":"N.A","LECTIPOFOR":"MEDIANO ","LECDIMMURO":"N.A","LECCODIDRD":"N.A","LECIMAGEN1":"http://cultured.scrd.gov.co/cultured/sites/default/files/documents/mapas_direc/ArteUrbano/CultCiud/TC2019/11.PigmentoUrbano.jpg","LECIMAGEN2":"N.A","LECIMAGEN3":"N.A","LECIMAGEN4":"N.A","LECIMAGEN5":"N.A","LECNOMARTI":"PIGMENTO URBANO","LECTITOBRA":"PARAISO: COLORES DE PAZ","LECNOMPRO":"CORREDOR ARTÍSTICO TRANSMICABLE 2019"}},{"type":"Feature","id":23,"geometry":{"type":"Point","coordinates":[-74.1477092006133,4.555244791546585]},"properties":{"OBJECTID":23,"LECCODIGO":23,"LECDIRECCI":"CL 67 C Bis No. 18 Q Bis B - 05","LECCODLOC":"19","LECNOMLOC":"Ciudad Bolívar","LECANIO":"2019","LECUBICACI":"Calle 67c Bis con Carrera 18q Bis B","LECOBSERV":"Resolución 507 de 13 de Septiembre de 2019","LECTEMATIC":"N.A","LECTIPOFOR":"MEDIANO ","LECDIMMURO":"N.A","LECCODIDRD":"N.A","LECIMAGEN1":"http://cultured.scrd.gov.co/cultured/sites/default/files/documents/mapas_direc/ArteUrbano/CultCiud/TC2019/07.MovimientoDeFotografos.jpg","LECIMAGEN2":"http://cultured.scrd.gov.co/cultured/sites/default/files/documents/mapas_direc/ArteUrbano/CultCiud/TC2019/08.MovimientoDeFotografos.jpg","LECIMAGEN3":"N.A","LECIMAGEN4":"N.A","LECIMAGEN5":"N.A","LECNOMARTI":"MOVIMIENTO DE FOTÓGRAFOS","LECTITOBRA":"IMÁGENES PARA EL RESPETO Y LA MEMORIA DEL TERRITORIO 2019","LECNOMPRO":"CORREDOR ARTÍSTICO TRANSMICABLE 2019"}},{"type":"Feature","id":24,"geometry":{"type":"Point","coordinates":[-74.14784369727597,4.554708937489128]},"properties":{"OBJECTID":24,"LECCODIGO":24,"LECDIRECCI":"CL 67 C Bis sur No. 18 Q - 05","LECCODLOC":"19","LECNOMLOC":"Ciudad Bolívar","LECANIO":"2019","LECUBICACI":"Calle 67c Bis sur con carrera 18q","LECOBSERV":"Resolución 507 de 13 de Septiembre de 2019","LECTEMATIC":"N.A","LECTIPOFOR":"PEQUEÑO ","LECDIMMURO":"N.A","LECCODIDRD":"N.A","LECIMAGEN1":"http://cultured.scrd.gov.co/cultured/sites/default/files/documents/mapas_direc/ArteUrbano/CultCiud/TC2019/16.Japu.jpeg","LECIMAGEN2":"N.A","LECIMAGEN3":"N.A","LECIMAGEN4":"N.A","LECIMAGEN5":"N.A","LECNOMARTI":"COLECTIVO ARTÍSTICO JAPU","LECTITOBRA":"TRANSMI-MURO","LECNOMPRO":"CORREDOR ARTÍSTICO TRANSMICABLE 2019"}},{"type":"Feature","id":25,"geometry":{"type":"Point","coordinates":[-74.14796891434173,4.553829319293363]},"properties":{"OBJECTID":25,"LECCODIGO":25,"LECDIRECCI":"KR 18 P Bis A No. 68 A - 05 sur","LECCODLOC":"19","LECNOMLOC":"Ciudad Bolívar","LECANIO":"2019","LECUBICACI":"Carrera 18p Bis A con Diagonal 68 A sur","LECOBSERV":"Resolución 507 de 13 de Septiembre de 2019","LECTEMATIC":"N.A","LECTIPOFOR":"MEDIANO ","LECDIMMURO":"N.A","LECCODIDRD":"N.A","LECIMAGEN1":"http://cultured.scrd.gov.co/cultured/sites/default/files/documents/mapas_direc/ArteUrbano/CultCiud/TC2019/03.MurosEnPaz.jpg","LECIMAGEN2":"http://cultured.scrd.gov.co/cultured/sites/default/files/documents/mapas_direc/ArteUrbano/CultCiud/TC2019/04.MurosEnPaz.jpg","LECIMAGEN3":"N.A","LECIMAGEN4":"N.A","LECIMAGEN5":"N.A","LECNOMARTI":"MUROS EN PAZ","LECTITOBRA":"ILUSTRANDO EL CABLE","LECNOMPRO":"CORREDOR ARTÍSTICO TRANSMICABLE 2019"}},{"type":"Feature","id":26,"geometry":{"type":"Point","coordinates":[-74.14725626465719,4.55496233901835]},"properties":{"OBJECTID":26,"LECCODIGO":26,"LECDIRECCI":"CL 67 A sur No. 18 T - 30","LECCODLOC":"19","LECNOMLOC":"Ciudad Bolívar","LECANIO":"2019","LECUBICACI":"Calle 67a sur # 18t-30","LECOBSERV":"Resolución 507 de 13 de Septiembre de 2019","LECTEMATIC":"N.A","LECTIPOFOR":"MEDIANO ","LECDIMMURO":"N.A","LECCODIDRD":"N.A","LECIMAGEN1":"http://cultured.scrd.gov.co/cultured/sites/default/files/documents/mapas_direc/ArteUrbano/CultCiud/TC2019/15.ElMeroRaye.jpeg","LECIMAGEN2":"N.A","LECIMAGEN3":"N.A","LECIMAGEN4":"N.A","LECIMAGEN5":"N.A","LECNOMARTI":"EL MERO RAYE","LECTITOBRA":"MI GENTE, MI BARRIO","LECNOMPRO":"CORREDOR ARTÍSTICO TRANSMICABLE 2019"}},{"type":"Feature","id":27,"geometry":{"type":"Point","coordinates":[-74.1589425487996,4.5509047105469165]},"properties":{"OBJECTID":27,"LECCODIGO":27,"LECDIRECCI":"CL 71 G No. 27 A - 05 sur","LECCODLOC":"19","LECNOMLOC":"Ciudad Bolívar","LECANIO":"2019","LECUBICACI":"Calle 71g #27a-05 sur","LECOBSERV":"Resolución 507 de 13 de Septiembre de 2019","LECTEMATIC":"N.A","LECTIPOFOR":"MEDIANO ","LECDIMMURO":"N.A","LECCODIDRD":"N.A","LECIMAGEN1":"http://cultured.scrd.gov.co/cultured/sites/default/files/documents/mapas_direc/ArteUrbano/CultCiud/TC2019/12.InsaneSouthChildrensCrew.jpeg","LECIMAGEN2":"N.A","LECIMAGEN3":"N.A","LECIMAGEN4":"N.A","LECIMAGEN5":"N.A","LECNOMARTI":"INSANE SOUTH CHILDRENS CREW","LECTITOBRA":"MIRADAS DE ENSUEÑO","LECNOMPRO":"CORREDOR ARTÍSTICO TRANSMICABLE 2019"}},{"type":"Feature","id":28,"geometry":{"type":"Point","coordinates":[-74.15055034907479,4.550308604211098]},"properties":{"OBJECTID":28,"LECCODIGO":28,"LECDIRECCI":"Estación TransMiCable Manitas","LECCODLOC":"19","LECNOMLOC":"Ciudad Bolívar","LECANIO":"2019","LECUBICACI":"Superficie fachada trasera Estación TransMiCable Manitas. Calle 70c, cra 19f sur","LECOBSERV":"Resolución 507 de 13 de Septiembre de 2019","LECTEMATIC":"N.A","LECTIPOFOR":"MEDIANO ","LECDIMMURO":"N.A","LECCODIDRD":"N.A","LECIMAGEN1":"http://cultured.scrd.gov.co/cultured/sites/default/files/documents/mapas_direc/ArteUrbano/CultCiud/TC2019/14.UTK.jpg","LECIMAGEN2":"N.A","LECIMAGEN3":"N.A","LECIMAGEN4":"N.A","LECIMAGEN5":"N.A","LECNOMARTI":"UTK CREW","LECTITOBRA":"MEMORIAS BARRIALES","LECNOMPRO":"CORREDOR ARTÍSTICO TRANSMICABLE 2019"}},{"type":"Feature","id":29,"geometry":{"type":"Point","coordinates":[-74.1588294733632,4.549698882433891]},"properties":{"OBJECTID":29,"LECCODIGO":29,"LECDIRECCI":"CL 71 I Bis No. 27 - 23 sur","LECCODLOC":"19","LECNOMLOC":"Ciudad Bolívar","LECANIO":"2019","LECUBICACI":"Calle 71i Bis # 27-23 sur","LECOBSERV":"Resolución 507 de 13 de Septiembre de 2019","LECTEMATIC":"N.A","LECTIPOFOR":"MEDIANO ","LECDIMMURO":"N.A","LECCODIDRD":"N.A","LECIMAGEN1":"http://cultured.scrd.gov.co/cultured/sites/default/files/documents/mapas_direc/ArteUrbano/CultCiud/TC2019/09.ChilliArtCollective.jpeg","LECIMAGEN2":"N.A","LECIMAGEN3":"N.A","LECIMAGEN4":"N.A","LECIMAGEN5":"N.A","LECNOMARTI":"CHILLI ART COLLECTIVE","LECTITOBRA":"FUTURE PARADISE","LECNOMPRO":"CORREDOR ARTÍSTICO TRANSMICABLE 2019"}},{"type":"Feature","id":30,"geometry":{"type":"Point","coordinates":[-74.14756618971839,4.555305575675022]},"properties":{"OBJECTID":30,"LECCODIGO":30,"LECDIRECCI":"CL 67 C Sur No. 18 Q bis B - 05","LECCODLOC":"19","LECNOMLOC":"Ciudad Bolívar","LECANIO":"2019","LECUBICACI":"Calle 67c Sur con carrera 18q bis B","LECOBSERV":"Resolución 507 de 13 de Septiembre de 2019","LECTEMATIC":"N.A","LECTIPOFOR":"MEDIANO ","LECDIMMURO":"N.A","LECCODIDRD":"N.A","LECIMAGEN1":"http://cultured.scrd.gov.co/cultured/sites/default/files/documents/mapas_direc/ArteUrbano/CultCiud/TC2019/05.RKP_ones.jpg","LECIMAGEN2":"http://cultured.scrd.gov.co/cultured/sites/default/files/documents/mapas_direc/ArteUrbano/CultCiud/TC2019/06.RKP_ones.jpg","LECIMAGEN3":"N.A","LECIMAGEN4":"N.A","LECIMAGEN5":"N.A","LECNOMARTI":"RKP ONE","LECTITOBRA":"TRANSMINUBES","LECNOMPRO":"CORREDOR ARTÍSTICO TRANSMICABLE 2019"}},{"type":"Feature","id":31,"geometry":{"type":"Point","coordinates":[-74.1479334659223,4.554751112728175]},"properties":{"OBJECTID":31,"LECCODIGO":31,"LECDIRECCI":"CL 67 C Bis No. 18 Q - 22 sur","LECCODLOC":"19","LECNOMLOC":"Ciudad Bolívar","LECANIO":"2019","LECUBICACI":"Calle 67c Bis 18q-22 sur","LECOBSERV":"Resolución 507 de 13 de Septiembre de 2019","LECTEMATIC":"N.A","LECTIPOFOR":"GRAN ","LECDIMMURO":"N.A","LECCODIDRD":"N.A","LECIMAGEN1":"http://cultured.scrd.gov.co/cultured/sites/default/files/documents/mapas_direc/ArteUrbano/CultCiud/TC2019/02.SURVAMOS.jpeg","LECIMAGEN2":"N.A","LECIMAGEN3":"N.A","LECIMAGEN4":"N.A","LECIMAGEN5":"N.A","LECNOMARTI":"SURVAMOS","LECTITOBRA":"HISTORIAS DE BARRIO","LECNOMPRO":"CORREDOR ARTÍSTICO TRANSMICABLE 2019"}},{"type":"Feature","id":32,"geometry":{"type":"Point","coordinates":[-74.14701949120617,4.556107803188143]},"properties":{"OBJECTID":32,"LECCODIGO":32,"LECDIRECCI":"KR 18 R No. 66 c - 22 sur","LECCODLOC":"19","LECNOMLOC":"Ciudad Bolívar","LECANIO":"2019","LECUBICACI":"Carrera 18r # 66c-22 sur","LECOBSERV":"Resolución 541 de 26 de Septiembre de 2019","LECTEMATIC":"N.A","LECTIPOFOR":"GRAN ","LECDIMMURO":"N.A","LECCODIDRD":"N.A","LECIMAGEN1":"http://cultured.scrd.gov.co/cultured/sites/default/files/documents/mapas_direc/ArteUrbano/CultCiud/HA/03.TheWalkers.jpg","LECIMAGEN2":"N.A","LECIMAGEN3":"N.A","LECIMAGEN4":"N.A","LECIMAGEN5":"N.A","LECNOMARTI":"THE WALKERS","LECTITOBRA":"LAS PAREDES PINTADAS HABLAN","LECNOMPRO":"BECA CIRCUITO DE ARTE URBANO RESPONSABLE TRANSMICABLE - HABITARTE"}},{"type":"Feature","id":33,"geometry":{"type":"Point","coordinates":[-74.15328403477378,4.551036822948267]},"properties":{"OBJECTID":33,"LECCODIGO":33,"LECDIRECCI":"TV 18 N bis A No. 69 Q sur - 48","LECCODLOC":"19","LECNOMLOC":"Ciudad Bolívar","LECANIO":"2019","LECUBICACI":"Transversal 18n bis a # 69q sur-48","LECOBSERV":"Resolución 541 de 26 de Septiembre de 2019","LECTEMATIC":"N.A","LECTIPOFOR":"MEDIANO ","LECDIMMURO":"N.A","LECCODIDRD":"N.A","LECIMAGEN1":"http://cultured.scrd.gov.co/cultured/sites/default/files/documents/mapas_direc/ArteUrbano/CultCiud/HA/22.MovimientoDeFotografos.jpg","LECIMAGEN2":"N.A","LECIMAGEN3":"N.A","LECIMAGEN4":"N.A","LECIMAGEN5":"N.A","LECNOMARTI":"MOVIMIENTO DE FOTÓGRAFOS","LECTITOBRA":"IMÁGENES PARA EL RESPETO Y LA MEMORIA DEL TERRITORIO 2019","LECNOMPRO":"BECA CIRCUITO DE ARTE URBANO RESPONSABLE TRANSMICABLE - HABITARTE"}},{"type":"Feature","id":34,"geometry":{"type":"Point","coordinates":[-74.15364095430078,4.552835695487374]},"properties":{"OBJECTID":34,"LECCODIGO":34,"LECDIRECCI":"TV 18 P bis No. 69 K - 06","LECCODLOC":"19","LECNOMLOC":"Ciudad Bolívar","LECANIO":"2019","LECUBICACI":"Transversal 18p bis # 69k-06","LECOBSERV":"Resolución 541 de 26 de Septiembre de 2019","LECTEMATIC":"N.A","LECTIPOFOR":"GRAN ","LECDIMMURO":"N.A","LECCODIDRD":"N.A","LECIMAGEN1":"http://cultured.scrd.gov.co/cultured/sites/default/files/documents/mapas_direc/ArteUrbano/CultCiud/HA/09.Altoaerosolcrew.jpg","LECIMAGEN2":"N.A","LECIMAGEN3":"N.A","LECIMAGEN4":"N.A","LECIMAGEN5":"N.A","LECNOMARTI":"ALTOAEROSOLCREW","LECTITOBRA":"RENACER EN LA MONTAÑA","LECNOMPRO":"BECA CIRCUITO DE ARTE URBANO RESPONSABLE TRANSMICABLE - HABITARTE"}},{"type":"Feature","id":35,"geometry":{"type":"Point","coordinates":[-74.14344851817019,4.547084306212603]},"properties":{"OBJECTID":35,"LECCODIGO":35,"LECDIRECCI":" CL 70 No. 18 P - 35 sur","LECCODLOC":"19","LECNOMLOC":"Ciudad Bolívar","LECANIO":"2019","LECUBICACI":" Calle 70 # 18P - 35","LECOBSERV":"Resolución 541 de 26 de Septiembre de 2019","LECTEMATIC":"N.A","LECTIPOFOR":"GRAN ","LECDIMMURO":"N.A","LECCODIDRD":"N.A","LECIMAGEN1":"http://cultured.scrd.gov.co/cultured/sites/default/files/documents/mapas_direc/ArteUrbano/CultCiud/HA/04.ColectivoInlakesh.jpeg","LECIMAGEN2":"N.A","LECIMAGEN3":"N.A","LECIMAGEN4":"N.A","LECIMAGEN5":"N.A","LECNOMARTI":"INLAKESH","LECTITOBRA":"HISTORIAS PINTADAS EN EL CIELO","LECNOMPRO":"BECA CIRCUITO DE ARTE URBANO RESPONSABLE TRANSMICABLE - HABITARTE"}},{"type":"Feature","id":36,"geometry":{"type":"Point","coordinates":[-74.15232128333435,4.548567858520336]},"properties":{"OBJECTID":36,"LECCODIGO":36,"LECDIRECCI":"CL 70 H Sur No. 18 P - 05","LECCODLOC":"19","LECNOMLOC":"Ciudad Bolívar","LECANIO":"2019","LECUBICACI":"Calle 70h sur- carrera 18p (cancha de fútbol)","LECOBSERV":"Resolución 541 de 26 de Septiembre de 2019","LECTEMATIC":"N.A","LECTIPOFOR":"MEDIANO ","LECDIMMURO":"N.A","LECCODIDRD":"N.A","LECIMAGEN1":"http://cultured.scrd.gov.co/cultured/sites/default/files/documents/mapas_direc/ArteUrbano/CultCiud/HA/12.RKP_One.jpg","LECIMAGEN2":"N.A","LECIMAGEN3":"N.A","LECIMAGEN4":"N.A","LECIMAGEN5":"N.A","LECNOMARTI":"RKP ONE","LECTITOBRA":"TRANSMI A LA GRAN PANTALLA","LECNOMPRO":"BECA CIRCUITO DE ARTE URBANO RESPONSABLE TRANSMICABLE - HABITARTE"}},{"type":"Feature","id":37,"geometry":{"type":"Point","coordinates":[-74.15028692979583,4.557302295485147]},"properties":{"OBJECTID":37,"LECCODIGO":37,"LECDIRECCI":"KR 18 Y No. 68 D - 16 sur","LECCODLOC":"19","LECNOMLOC":"Ciudad Bolívar","LECANIO":"2019","LECUBICACI":"Carrera 18y # 68D- 16 sur","LECOBSERV":"Resolución 541 de 26 de Septiembre de 2019","LECTEMATIC":"N.A","LECTIPOFOR":"MEDIANO ","LECDIMMURO":"N.A","LECCODIDRD":"N.A","LECIMAGEN1":"http://cultured.scrd.gov.co/cultured/sites/default/files/documents/mapas_direc/ArteUrbano/CultCiud/HA/18.Exidia.jpg","LECIMAGEN2":"N.A","LECIMAGEN3":"N.A","LECIMAGEN4":"N.A","LECIMAGEN5":"N.A","LECNOMARTI":"EXIDIA","LECTITOBRA":"RENACER","LECNOMPRO":"BECA CIRCUITO DE ARTE URBANO RESPONSABLE TRANSMICABLE - HABITARTE"}},{"type":"Feature","id":38,"geometry":{"type":"Point","coordinates":[-74.14951954755763,4.550244358615143]},"properties":{"OBJECTID":38,"LECCODIGO":38,"LECDIRECCI":"CL 70 H sur No. 18 P- 05","LECCODLOC":"19","LECNOMLOC":"Ciudad Bolívar","LECANIO":"2019","LECUBICACI":"Calle 70H sur - carrera 18p-05","LECOBSERV":"Resolución 541 de 26 de Septiembre de 2019","LECTEMATIC":"N.A","LECTIPOFOR":"GRAN ","LECDIMMURO":"N.A","LECCODIDRD":"N.A","LECIMAGEN1":"http://cultured.scrd.gov.co/cultured/sites/default/files/documents/mapas_direc/ArteUrbano/CultCiud/HA/01.EndemicoAndino.JPG","LECIMAGEN2":"http://cultured.scrd.gov.co/cultured/sites/default/files/documents/mapas_direc/ArteUrbano/CultCiud/HA/02.EndemicoAndino.JPG","LECIMAGEN3":"N.A","LECIMAGEN4":"N.A","LECIMAGEN5":"N.A","LECNOMARTI":"ENDÉMICO ANDINO","LECTITOBRA":"VITAMINA M: MULTIPLICADORES DE LA MEMORIA BARRIAL","LECNOMPRO":"BECA CIRCUITO DE ARTE URBANO RESPONSABLE TRANSMICABLE - HABITARTE"}},{"type":"Feature","id":39,"geometry":{"type":"Point","coordinates":[-74.15033968785247,4.548354949525723]},"properties":{"OBJECTID":39,"LECCODIGO":39,"LECDIRECCI":"CL 70 L Sur No. 18 L - 47","LECCODLOC":"19","LECNOMLOC":"Ciudad Bolívar","LECANIO":"2019","LECUBICACI":"Calle 70l sur # 18l-47","LECOBSERV":"Resolución 541 de 26 de Septiembre de 2019","LECTEMATIC":"N.A","LECTIPOFOR":"MEDIANO ","LECDIMMURO":"N.A","LECCODIDRD":"N.A","LECIMAGEN1":"http://cultured.scrd.gov.co/cultured/sites/default/files/documents/mapas_direc/ArteUrbano/CultCiud/HA/10.ColectivoArtisticoJapu.jpeg","LECIMAGEN2":"N.A","LECIMAGEN3":"N.A","LECIMAGEN4":"N.A","LECIMAGEN5":"N.A","LECNOMARTI":"COLECTIVO ARTÍSTICO JAPU","LECTITOBRA":"¡MUY PROPIO MI MURO!","LECNOMPRO":"BECA CIRCUITO DE ARTE URBANO RESPONSABLE TRANSMICABLE - HABITARTE"}},{"type":"Feature","id":40,"geometry":{"type":"Point","coordinates":[-74.15351643073441,4.55155689596993]},"properties":{"OBJECTID":40,"LECCODIGO":40,"LECDIRECCI":"CL 69 P Bis A No. 18 P - 21 sur","LECCODLOC":"19","LECNOMLOC":"Ciudad Bolívar","LECANIO":"2019","LECUBICACI":"Calle 69p bis a # 18p-21 sur","LECOBSERV":"Resolución 541 de 26 de Septiembre de 2019","LECTEMATIC":"N.A","LECTIPOFOR":"MEDIANO ","LECDIMMURO":"N.A","LECCODIDRD":"N.A","LECIMAGEN1":"http://cultured.scrd.gov.co/cultured/sites/default/files/documents/mapas_direc/ArteUrbano/CultCiud/HA/23.ColegasUrbanos.jpg","LECIMAGEN2":"N.A","LECIMAGEN3":"N.A","LECIMAGEN4":"N.A","LECIMAGEN5":"N.A","LECNOMARTI":"COLEGAS URBANOS","LECTITOBRA":"CONEXIÓN SENTIDOS URBANO RURALES","LECNOMPRO":"BECA CIRCUITO DE ARTE URBANO RESPONSABLE TRANSMICABLE - HABITARTE"}},{"type":"Feature","id":41,"geometry":{"type":"Point","coordinates":[-74.130115040902,4.5683563656888]},"properties":{"OBJECTID":41,"LECCODIGO":41,"LECDIRECCI":"KR 19 No. 52 - 26 sur","LECCODLOC":"19","LECNOMLOC":"Ciudad Bolívar","LECANIO":"2019","LECUBICACI":"Carrera 19 # 52-26 sur","LECOBSERV":"Resolución 541 de 26 de Septiembre de 2019","LECTEMATIC":"N.A","LECTIPOFOR":"MEDIANO ","LECDIMMURO":"N.A","LECCODIDRD":"N.A","LECIMAGEN1":"http://cultured.scrd.gov.co/cultured/sites/default/files/documents/mapas_direc/ArteUrbano/CultCiud/HA/17.PDV%28PuenteDeVida%29.jpeg","LECIMAGEN2":"N.A","LECIMAGEN3":"N.A","LECIMAGEN4":"N.A","LECIMAGEN5":"N.A","LECNOMARTI":"PDV (PUENTE DE VIDA)","LECTITOBRA":"SEMILLAS DE MARANDÚ","LECNOMPRO":"BECA CIRCUITO DE ARTE URBANO RESPONSABLE TRANSMICABLE - HABITARTE"}},{"type":"Feature","id":42,"geometry":{"type":"Point","coordinates":[-74.15044067555839,4.558106562451199]},"properties":{"OBJECTID":42,"LECCODIGO":42,"LECDIRECCI":"KR 19 No. 68 D - 05 sur","LECCODLOC":"19","LECNOMLOC":"Ciudad Bolívar","LECANIO":"2019","LECUBICACI":"Carrera 19 con calle 68d sur","LECOBSERV":"Resolución 541 de 26 de Septiembre de 2019","LECTEMATIC":"N.A","LECTIPOFOR":"MEDIANO ","LECDIMMURO":"N.A","LECCODIDRD":"N.A","LECIMAGEN1":"http://cultured.scrd.gov.co/cultured/sites/default/files/documents/mapas_direc/ArteUrbano/CultCiud/HA/19.MadonnariColombia.JPG","LECIMAGEN2":"http://cultured.scrd.gov.co/cultured/sites/default/files/documents/mapas_direc/ArteUrbano/CultCiud/HA/20.MadonnariColombia.JPG","LECIMAGEN3":"http://cultured.scrd.gov.co/cultured/sites/default/files/documents/mapas_direc/ArteUrbano/CultCiud/HA/21.MadonnariColombia.jpg","LECIMAGEN4":"N.A","LECIMAGEN5":"N.A","LECNOMARTI":"MADONNARI COLOMBIA","LECTITOBRA":"EL MARANDÙ","LECNOMPRO":"BECA CIRCUITO DE ARTE URBANO RESPONSABLE TRANSMICABLE - HABITARTE"}},{"type":"Feature","id":43,"geometry":{"type":"Point","coordinates":[-74.15235340619058,4.548605334608935]},"properties":{"OBJECTID":43,"LECCODIGO":43,"LECDIRECCI":"CL 70 H Sur No. 18 P - 05","LECCODLOC":"19","LECNOMLOC":"Ciudad Bolívar","LECANIO":"2019","LECUBICACI":"Calle 70h sur- carrera 18p","LECOBSERV":"Resolución 541 de 26 de Septiembre de 2019","LECTEMATIC":"N.A","LECTIPOFOR":"MEDIANO ","LECDIMMURO":"N.A","LECCODIDRD":"N.A","LECIMAGEN1":"http://cultured.scrd.gov.co/cultured/sites/default/files/documents/mapas_direc/ArteUrbano/CultCiud/HA/11.LazosArtisticos.jpg","LECIMAGEN2":"N.A","LECIMAGEN3":"N.A","LECIMAGEN4":"N.A","LECIMAGEN5":"N.A","LECNOMARTI":"LAZOS ARTISTICOS","LECTITOBRA":"LEGADO","LECNOMPRO":"BECA CIRCUITO DE ARTE URBANO RESPONSABLE TRANSMICABLE - HABITARTE"}},{"type":"Feature","id":44,"geometry":{"type":"Point","coordinates":[-74.14545037874656,4.5575784474289565]},"properties":{"OBJECTID":44,"LECCODIGO":44,"LECDIRECCI":"KR 18 T No. 65 A - 27 sur","LECCODLOC":"19","LECNOMLOC":"Ciudad Bolívar","LECANIO":"2019","LECUBICACI":"Colegio Santa Bárbara Sede A Cra 18t # 65a-27 sur","LECOBSERV":"Resolución 541 de 26 de Septiembre de 2019","LECTEMATIC":"N.A","LECTIPOFOR":"MEDIANO ","LECDIMMURO":"N.A","LECCODIDRD":"N.A","LECIMAGEN1":"http://cultured.scrd.gov.co/cultured/sites/default/files/documents/mapas_direc/ArteUrbano/CultCiud/HA/14.Traffic-art.jpg","LECIMAGEN2":"N.A","LECIMAGEN3":"N.A","LECIMAGEN4":"N.A","LECIMAGEN5":"N.A","LECNOMARTI":"TRAFIC-ART","LECTITOBRA":"DIBUJANDO AL BARRIO","LECNOMPRO":"BECA CIRCUITO DE ARTE URBANO RESPONSABLE TRANSMICABLE - HABITARTE"}},{"type":"Feature","id":45,"geometry":{"type":"Point","coordinates":[-74.15028692979583,4.557302295485147]},"properties":{"OBJECTID":45,"LECCODIGO":45,"LECDIRECCI":"KR 18 Y No. 68 D - 16 sur","LECCODLOC":"19","LECNOMLOC":"Ciudad Bolívar","LECANIO":"2019","LECUBICACI":"Carrera 18y # 68d-16 sur","LECOBSERV":"Resolución 541 de 26 de Septiembre de 2019","LECTEMATIC":"N.A","LECTIPOFOR":"GRAN ","LECDIMMURO":"N.A","LECCODIDRD":"N.A","LECIMAGEN1":"http://cultured.scrd.gov.co/cultured/sites/default/files/documents/mapas_direc/ArteUrbano/CultCiud/HA/07.Aerosoleros.jpeg","LECIMAGEN2":"http://cultured.scrd.gov.co/cultured/sites/default/files/documents/mapas_direc/ArteUrbano/CultCiud/HA/08.Aerosoleros.jpg","LECIMAGEN3":"N.A","LECIMAGEN4":"N.A","LECIMAGEN5":"N.A","LECNOMARTI":"AEROSOLEROS","LECTITOBRA":"METEGOL PINTA","LECNOMPRO":"BECA CIRCUITO DE ARTE URBANO RESPONSABLE TRANSMICABLE - HABITARTE"}},{"type":"Feature","id":46,"geometry":{"type":"Point","coordinates":[-74.14211199211407,4.557831770936043]},"properties":{"OBJECTID":46,"LECCODIGO":46,"LECDIRECCI":"CL 63 No. KR 18 Q Bis - 05 sur","LECCODLOC":"19","LECNOMLOC":"Ciudad Bolívar","LECANIO":"2019","LECUBICACI":"Calle 63 con cra 18q bis","LECOBSERV":"Resolución 541 de 26 de Septiembre de 2019","LECTEMATIC":"N.A","LECTIPOFOR":"GRAN ","LECDIMMURO":"N.A","LECCODIDRD":"N.A","LECIMAGEN1":"http://cultured.scrd.gov.co/cultured/sites/default/files/documents/mapas_direc/ArteUrbano/CultCiud/HA/05.FenomenosCrew.jpeg","LECIMAGEN2":"http://cultured.scrd.gov.co/cultured/sites/default/files/documents/mapas_direc/ArteUrbano/CultCiud/HA/06.FenomenosCrew.png","LECIMAGEN3":"N.A","LECIMAGEN4":"N.A","LECIMAGEN5":"N.A","LECNOMARTI":"FENÓMENOS CREW","LECTITOBRA":"CIUDAD BOLÍVAR ES FENOMENAL","LECNOMPRO":"BECA CIRCUITO DE ARTE URBANO RESPONSABLE TRANSMICABLE - HABITARTE"}},{"type":"Feature","id":47,"geometry":{"type":"Point","coordinates":[-74.15047305982438,4.557695849538081]},"properties":{"OBJECTID":47,"LECCODIGO":47,"LECDIRECCI":"KR 18 Z No. 68 D - 05 sur","LECCODLOC":"19","LECNOMLOC":"Ciudad Bolívar","LECANIO":"2019","LECUBICACI":"Carrera 18Z con calle 68D sur","LECOBSERV":"Resolución 541 de 26 de Septiembre de 2019","LECTEMATIC":"N.A","LECTIPOFOR":"PEQUEÑO ","LECDIMMURO":"N.A","LECCODIDRD":"N.A","LECIMAGEN1":"http://cultured.scrd.gov.co/cultured/sites/default/files/documents/mapas_direc/ArteUrbano/CultCiud/HA/24.BikeRiders.jpg","LECIMAGEN2":"N.A","LECIMAGEN3":"N.A","LECIMAGEN4":"N.A","LECIMAGEN5":"N.A","LECNOMARTI":"BIKE RIDERS","LECTITOBRA":"CAMPEONES DE PAZ","LECNOMPRO":"BECA CIRCUITO DE ARTE URBANO RESPONSABLE TRANSMICABLE - HABITARTE"}},{"type":"Feature","id":48,"geometry":{"type":"Point","coordinates":[-74.14675319103007,4.556575898220412]},"properties":{"OBJECTID":48,"LECCODIGO":48,"LECDIRECCI":"CL 66 bis No. 18 Q - 63 Sur","LECCODLOC":"19","LECNOMLOC":"Ciudad Bolívar","LECANIO":"2019","LECUBICACI":"Lateral casa hacia espacio público calle 66 bis # 18q-63","LECOBSERV":"Resolución 541 de 26 de Septiembre de 2019","LECTEMATIC":"N.A","LECTIPOFOR":"MEDIANO ","LECDIMMURO":"N.A","LECCODIDRD":"N.A","LECIMAGEN1":"http://cultured.scrd.gov.co/cultured/sites/default/files/documents/mapas_direc/ArteUrbano/CultCiud/HA/15.SkinnyUniversalTeam.JPG","LECIMAGEN2":"http://cultured.scrd.gov.co/cultured/sites/default/files/documents/mapas_direc/ArteUrbano/CultCiud/HA/16.SkinnyUniversalTeam.jpg","LECIMAGEN3":"N.A","LECIMAGEN4":"N.A","LECIMAGEN5":"N.A","LECNOMARTI":"SKINNY UNIVERSAL TEAM","LECTITOBRA":"CONSTRUYENDO CIUDAD","LECNOMPRO":"BECA CIRCUITO DE ARTE URBANO RESPONSABLE TRANSMICABLE - HABITARTE"}},{"type":"Feature","id":49,"geometry":{"type":"Point","coordinates":[-74.14488677933058,4.557120493412611]},"properties":{"OBJECTID":49,"LECCODIGO":49,"LECDIRECCI":"KR 18 R No. 65 - 46 sur","LECCODLOC":"19","LECNOMLOC":"Ciudad Bolívar","LECANIO":"2019","LECUBICACI":"Carrera 18r # 65-46 sur","LECOBSERV":"Resolución 541 de 26 de Septiembre de 2019","LECTEMATIC":"N.A","LECTIPOFOR":"MEDIANO ","LECDIMMURO":"N.A","LECCODIDRD":"N.A","LECIMAGEN1":"http://cultured.scrd.gov.co/cultured/sites/default/files/documents/mapas_direc/ArteUrbano/CultCiud/HA/13.TresPuntos.jpg","LECIMAGEN2":"N.A","LECIMAGEN3":"N.A","LECIMAGEN4":"N.A","LECIMAGEN5":"N.A","LECNOMARTI":"TRES PUNTOS","LECTITOBRA":"TEJIENDO SUEÑOS","LECNOMPRO":"BECA CIRCUITO DE ARTE URBANO RESPONSABLE TRANSMICABLE - HABITARTE"}},{"type":"Feature","id":50,"geometry":{"type":"Point","coordinates":[-74.08178712131071,4.5936099809543744]},"properties":{"OBJECTID":50,"LECCODIGO":50,"LECDIRECCI":"KR 10 No 4 - 50","LECCODLOC":"3","LECNOMLOC":"Santa Fe","LECANIO":"2019","LECUBICACI":"CARRERA 10 ENTRE CALLES 5 Y4","LECOBSERV":"Resolucion 550 de 30 de Septiembre de 2019","LECTEMATIC":"N.A","LECTIPOFOR":"GRAN ","LECDIMMURO":"N.A","LECCODIDRD":"N.A","LECIMAGEN1":"N.A","LECIMAGEN2":"N.A","LECIMAGEN3":"N.A","LECIMAGEN4":"N.A","LECIMAGEN5":"N.A","LECNOMARTI":"CRISIS","LECTITOBRA":"MONUMENTO AL BARRIO","LECNOMPRO":"BECA “MURALES PARA LA CONVIVENCIA”"}},{"type":"Feature","id":51,"geometry":{"type":"Point","coordinates":[-74.16112856131426,4.634111658015455]},"properties":{"OBJECTID":51,"LECCODIGO":51,"LECDIRECCI":"Dg 38 Sur No. 80 - 50","LECCODLOC":"8","LECNOMLOC":"Kennedy","LECANIO":"2019","LECUBICACI":"Dg 38 Sur Entre Cr 80 y Av. Ciudad de Cali","LECOBSERV":"Resolucion 550 de 30 de Septiembre de 2019","LECTEMATIC":"N.A","LECTIPOFOR":"GRAN ","LECDIMMURO":"N.A","LECCODIDRD":"N.A","LECIMAGEN1":"N.A","LECIMAGEN2":"N.A","LECIMAGEN3":"N.A","LECIMAGEN4":"N.A","LECIMAGEN5":"N.A","LECNOMARTI":"APUS","LECTITOBRA":"PINTEMOSLA... ¡CON VIVENCIA!","LECNOMPRO":"BECA “MURALES PARA LA CONVIVENCIA”"}},{"type":"Feature","id":52,"geometry":{"type":"Point","coordinates":[-74.1427425959688,4.594358610855742]},"properties":{"OBJECTID":52,"LECCODIGO":52,"LECDIRECCI":"KR 55 No. 46 - 50 Sur","LECCODLOC":"6","LECNOMLOC":"Tunjuelito","LECANIO":"2019","LECUBICACI":"Cra 55 entre Diagonales 46 y 47 Sur","LECOBSERV":"Resolucion 550 de 30 de Septiembre de 2019","LECTEMATIC":"N.A","LECTIPOFOR":"MEDIANO ","LECDIMMURO":"N.A","LECCODIDRD":"N.A","LECIMAGEN1":"N.A","LECIMAGEN2":"N.A","LECIMAGEN3":"N.A","LECIMAGEN4":"N.A","LECIMAGEN5":"N.A","LECNOMARTI":"JUEGASIEMPRE ARTE URBANO","LECTITOBRA":"UNIDOS EN LA DIFERENCIA","LECNOMPRO":"BECA “MURALES PARA LA CONVIVENCIA”"}},{"type":"Feature","id":53,"geometry":{"type":"Point","coordinates":[-74.07307564506257,4.6686650475538505]},"properties":{"OBJECTID":53,"LECCODIGO":53,"LECDIRECCI":"KR 30 No. 73 - 05","LECCODLOC":"12","LECNOMLOC":"Barrios Unidos","LECANIO":"2019","LECUBICACI":"AVENIDA NQS CON CALLE 73. COSTADO OCCIDENTA","LECOBSERV":"Resolucion 550 de 30 de Septiembre de 2019","LECTEMATIC":"N.A","LECTIPOFOR":"MEDIANO ","LECDIMMURO":"N.A","LECCODIDRD":"N.A","LECIMAGEN1":"N.A","LECIMAGEN2":"N.A","LECIMAGEN3":"N.A","LECIMAGEN4":"N.A","LECIMAGEN5":"N.A","LECNOMARTI":"PROCESO  SOCIAL G1","LECTITOBRA":"INTEGRACIÓN PICTÓRICA EN EL 12","LECNOMPRO":"BECA “MURALES PARA LA CONVIVENCIA”"}},{"type":"Feature","id":54,"geometry":{"type":"Point","coordinates":[-74.15023117765435,4.557904211236046]},"properties":{"OBJECTID":54,"LECCODIGO":54,"LECDIRECCI":"KR 19 No. 68 C - 28 SUR","LECCODLOC":"19","LECNOMLOC":"Ciudad Bolívar","LECANIO":"2019","LECUBICACI":"CARRERA 19 # 68 C - 28 SUR","LECOBSERV":"Resolucion 550 de 30 de Septiembre de 2019","LECTEMATIC":"N.A","LECTIPOFOR":"GRAN ","LECDIMMURO":"N.A","LECCODIDRD":"N.A","LECIMAGEN1":"N.A","LECIMAGEN2":"N.A","LECIMAGEN3":"N.A","LECIMAGEN4":"N.A","LECIMAGEN5":"N.A","LECNOMARTI":"MESA DE GRAFFITI MUJERES BOGOTA","LECTITOBRA":"EL COLOR DE MI BARRIO","LECNOMPRO":"BECA “MURALES PARA LA CONVIVENCIA”"}},{"type":"Feature","id":55,"geometry":{"type":"Point","coordinates":[-74.07816968830656,4.581385072008713]},"properties":{"OBJECTID":55,"LECCODIGO":55,"LECDIRECCI":"KR 1 D No. 1 - 18","LECCODLOC":"3","LECNOMLOC":"Santa Fe","LECANIO":"2019","LECUBICACI":"Cr 1D # 1 - 18","LECOBSERV":"Resolucion 550 de 30 de Septiembre de 2019","LECTEMATIC":"N.A","LECTIPOFOR":"MEDIANO ","LECDIMMURO":"N.A","LECCODIDRD":"N.A","LECIMAGEN1":"N.A","LECIMAGEN2":"N.A","LECIMAGEN3":"N.A","LECIMAGEN4":"N.A","LECIMAGEN5":"N.A","LECNOMARTI":"TREBOLACREW","LECTITOBRA":"MEMORIAS DE MI BARRIO","LECNOMPRO":"BECA “MURALES PARA LA CONVIVENCIA”"}},{"type":"Feature","id":56,"geometry":{"type":"Point","coordinates":[-74.08292101708314,4.592428822200256]},"properties":{"OBJECTID":56,"LECCODIGO":56,"LECDIRECCI":"KR 10 No. 3 - 05","LECCODLOC":"3","LECNOMLOC":"Santa Fe","LECANIO":"2019","LECUBICACI":"Cr 10 # 3 Esquina","LECOBSERV":"Resolucion 550 de 30 de Septiembre de 2019","LECTEMATIC":"N.A","LECTIPOFOR":"PEQUEÑO ","LECDIMMURO":"N.A","LECCODIDRD":"N.A","LECIMAGEN1":"N.A","LECIMAGEN2":"N.A","LECIMAGEN3":"N.A","LECIMAGEN4":"N.A","LECIMAGEN5":"N.A","LECNOMARTI":"COLECTIVO SMG","LECTITOBRA":"ENCUENTRO, MEMORIA Y PINTURA","LECNOMPRO":"BECA “MURALES PARA LA CONVIVENCIA”"}},{"type":"Feature","id":57,"geometry":{"type":"Point","coordinates":[-74.1143896330015,4.603039906645661]},"properties":{"OBJECTID":57,"LECCODIGO":57,"LECDIRECCI":"Cl 10 Sur No. 38 A - 25","LECCODLOC":"16","LECNOMLOC":"Puente Aranda","LECANIO":"2019","LECUBICACI":"Cl 10 Sur # 38A - 25","LECOBSERV":"Resolucion 550 de 30 de Septiembre de 2019","LECTEMATIC":"N.A","LECTIPOFOR":"PEQUEÑO ","LECDIMMURO":"N.A","LECCODIDRD":"N.A","LECIMAGEN1":"N.A","LECIMAGEN2":"N.A","LECIMAGEN3":"N.A","LECIMAGEN4":"N.A","LECIMAGEN5":"N.A","LECNOMARTI":"EFIMERO","LECTITOBRA":"ESENCIA Y TRADICIÓN","LECNOMPRO":"BECA “MURALES PARA LA CONVIVENCIA”"}},{"type":"Feature","id":58,"geometry":{"type":"Point","coordinates":[-74.10194114271354,4.714517254176646]},"properties":{"OBJECTID":58,"LECCODIGO":58,"LECDIRECCI":"CL 88 No. 95 - 67","LECCODLOC":"10","LECNOMLOC":"Engativá","LECANIO":"2019","LECUBICACI":"CALLE 88 # 95-67 (INT 102)","LECOBSERV":"Resolucion 550 de 30 de Septiembre de 2019","LECTEMATIC":"N.A","LECTIPOFOR":"PEQUEÑO ","LECDIMMURO":"N.A","LECCODIDRD":"N.A","LECIMAGEN1":"N.A","LECIMAGEN2":"N.A","LECIMAGEN3":"N.A","LECIMAGEN4":"N.A","LECIMAGEN5":"N.A","LECNOMARTI":"ARTE EXPRESIVO CREW","LECTITOBRA":"ARTEXPRESIVO","LECNOMPRO":"BECA “MURALES PARA LA CONVIVENCIA”"}},{"type":"Feature","id":59,"geometry":{"type":"Point","coordinates":[-74.1665953550955,4.695415002642965]},"properties":{"OBJECTID":59,"LECCODIGO":59,"LECDIRECCI":"CL 17 C No. 134 - 70","LECCODLOC":"9","LECNOMLOC":"Fontibón","LECANIO":"2019","LECUBICACI":"CALLE 17C # 134-70","LECOBSERV":"Resolucion 550 de 30 de Septiembre de 2019","LECTEMATIC":"N.A","LECTIPOFOR":"PEQUEÑO ","LECDIMMURO":"N.A","LECCODIDRD":"N.A","LECIMAGEN1":"N.A","LECIMAGEN2":"N.A","LECIMAGEN3":"N.A","LECIMAGEN4":"N.A","LECIMAGEN5":"N.A","LECNOMARTI":"DAR-ARTE","LECTITOBRA":"SEGURIDAD Y ARMONÍA CON EL ARTE","LECNOMPRO":"BECA “MURALES PARA LA CONVIVENCIA”"}},{"type":"Feature","id":60,"geometry":{"type":"Point","coordinates":[-74.10047799013495,4.694067823901623]},"properties":{"OBJECTID":60,"LECCODIGO":60,"LECDIRECCI":"KR 80 N Sur No. 73 A - 07","LECCODLOC":"7","LECNOMLOC":"Bosa","LECANIO":"2019","LECUBICACI":"Cra 80N Sur # 73 a - 07","LECOBSERV":"Resolucion 550 de 30 de Septiembre de 2019","LECTEMATIC":"N.A","LECTIPOFOR":"PEQUEÑO ","LECDIMMURO":"N.A","LECCODIDRD":"N.A","LECIMAGEN1":"N.A","LECIMAGEN2":"N.A","LECIMAGEN3":"N.A","LECIMAGEN4":"N.A","LECIMAGEN5":"N.A","LECNOMARTI":"INK CREW","LECTITOBRA":"CONVERGENCIA COLOR","LECNOMPRO":"BECA “MURALES PARA LA CONVIVENCIA”"}},{"type":"Feature","id":61,"geometry":{"type":"Point","coordinates":[-74.14898655643832,4.562823683547613]},"properties":{"OBJECTID":61,"LECCODIGO":61,"LECDIRECCI":"KR 20 C No. 67 - 04 SUR","LECCODLOC":"19","LECNOMLOC":"Ciudad Bolívar","LECANIO":"2019","LECUBICACI":"CARRERA 20 C # 67-04 SUR","LECOBSERV":"Resolucion 550 de 30 de Septiembre de 2019","LECTEMATIC":"N.A","LECTIPOFOR":"GRAN ","LECDIMMURO":"N.A","LECCODIDRD":"N.A","LECIMAGEN1":"N.A","LECIMAGEN2":"N.A","LECIMAGEN3":"N.A","LECIMAGEN4":"N.A","LECIMAGEN5":"N.A","LECNOMARTI":"ALTOAEROSOLCREW","LECTITOBRA":"AEROSOLES DE HERMANDAD","LECNOMPRO":"BECA “MURALES PARA LA CONVIVENCIA”"}},{"type":"Feature","id":62,"geometry":{"type":"Point","coordinates":[-74.1200599185508,4.544245642624116]},"properties":{"OBJECTID":62,"LECCODIGO":62,"LECDIRECCI":"Cl 55 A Sur No. 5 C Bis","LECCODLOC":"18","LECNOMLOC":"Rafael Uribe","LECANIO":"2019","LECUBICACI":"Cl 55 A Sur # 5C Bis","LECOBSERV":"Resolucion 550 de 30 de Septiembre de 2019","LECTEMATIC":"N.A","LECTIPOFOR":"MEDIANO ","LECDIMMURO":"N.A","LECCODIDRD":"N.A","LECIMAGEN1":"N.A","LECIMAGEN2":"N.A","LECIMAGEN3":"N.A","LECIMAGEN4":"N.A","LECIMAGEN5":"N.A","LECNOMARTI":"INSANE SOUTH  CHILDRENS","LECTITOBRA":"LAZOS DE MI BARRIO","LECNOMPRO":"BECA “MURALES PARA LA CONVIVENCIA”"}},{"type":"Feature","id":63,"geometry":{"type":"Point","coordinates":[-74.1058973286147,4.6920515207223525]},"properties":{"OBJECTID":63,"LECCODIGO":63,"LECDIRECCI":"KR 83 No. 70 - 15","LECCODLOC":"10","LECNOMLOC":"Engativá","LECANIO":"2019","LECUBICACI":"Cra 83 # 70 - 15","LECOBSERV":"Resolucion 550 de 30 de Septiembre de 2019","LECTEMATIC":"N.A","LECTIPOFOR":"PEQUEÑO ","LECDIMMURO":"N.A","LECCODIDRD":"N.A","LECIMAGEN1":"N.A","LECIMAGEN2":"N.A","LECIMAGEN3":"N.A","LECIMAGEN4":"N.A","LECIMAGEN5":"N.A","LECNOMARTI":"ARTNATURAL","LECTITOBRA":"PINTANDO UN ESPACIO PARA CONVIVIR","LECNOMPRO":"BECA “MURALES PARA LA CONVIVENCIA”"}},{"type":"Feature","id":64,"geometry":{"type":"Point","coordinates":[-74.12122969662893,4.743439539487093]},"properties":{"OBJECTID":64,"LECCODIGO":64,"LECDIRECCI":"KR 151 BIS No. 132 A - 04","LECCODLOC":"11","LECNOMLOC":"Suba","LECANIO":"2019","LECUBICACI":"CR 151 BIS No. 132 A-04","LECOBSERV":"Resolucion 550 de 30 de Septiembre de 2019","LECTEMATIC":"N.A","LECTIPOFOR":"PEQUEÑO ","LECDIMMURO":"N.A","LECCODIDRD":"N.A","LECIMAGEN1":"N.A","LECIMAGEN2":"N.A","LECIMAGEN3":"N.A","LECIMAGEN4":"N.A","LECIMAGEN5":"N.A","LECNOMARTI":"COLECTIVO 18 DE DICIEMBRE","LECTITOBRA":"TEJIENDO MEMORIAS","LECNOMPRO":"BECA “MURALES PARA LA CONVIVENCIA”"}},{"type":"Feature","id":65,"geometry":{"type":"Point","coordinates":[-74.08506280912962,4.58012423768868]},"properties":{"OBJECTID":65,"LECCODIGO":65,"LECDIRECCI":"KR 6 No. 8 A - 35 Sur","LECCODLOC":"4","LECNOMLOC":"San Cristóbal","LECANIO":"2019","LECUBICACI":"Cr 6 # 8A - 35 Sur","LECOBSERV":"Resolucion 550 de 30 de Septiembre de 2019","LECTEMATIC":"N.A","LECTIPOFOR":"MEDIANO ","LECDIMMURO":"N.A","LECCODIDRD":"N.A","LECIMAGEN1":"N.A","LECIMAGEN2":"N.A","LECIMAGEN3":"N.A","LECIMAGEN4":"N.A","LECIMAGEN5":"N.A","LECNOMARTI":"KAV CREW","LECTITOBRA":"CON-VIVIENDO POR NUESTRO ENTORNO","LECNOMPRO":"BECA “MURALES PARA LA CONVIVENCIA”"}},{"type":"Feature","id":66,"geometry":{"type":"Point","coordinates":[-74.09621087036452,4.509038148274126]},"properties":{"OBJECTID":66,"LECCODIGO":66,"LECDIRECCI":"KR 10 Este No. 80 - 20 Sur","LECCODLOC":"5","LECNOMLOC":"Usme","LECANIO":"2019","LECUBICACI":"Cr 10 Este # 80 - 20 Sur","LECOBSERV":"Resolucion 550 de 30 de Septiembre de 2019","LECTEMATIC":"N.A","LECTIPOFOR":"PEQUEÑO ","LECDIMMURO":"N.A","LECCODIDRD":"N.A","LECIMAGEN1":"N.A","LECIMAGEN2":"N.A","LECIMAGEN3":"N.A","LECIMAGEN4":"N.A","LECIMAGEN5":"N.A","LECNOMARTI":"ESCUELA POPULAR DE ARTE PÚBLICO - LA QUINTA PORRA.","LECTITOBRA":"HACER DEL TERRITORIO NUESTRO MOTIVO, Y DE NUESTRO MOTIVO UN PROBLEMA DE REFLEXIÓN PLASTICA","LECNOMPRO":"BECA “MURALES PARA LA CONVIVENCIA”"}},{"type":"Feature","id":67,"geometry":{"type":"Point","coordinates":[-74.07616073822598,4.615226582789684]},"properties":{"OBJECTID":67,"LECCODIGO":67,"LECDIRECCI":"Cl 24 No. 18 - 38","LECCODLOC":"14","LECNOMLOC":"Mártires","LECANIO":"2019","LECUBICACI":"Cl 24 # 18 - 38","LECOBSERV":"Resolucion 550 de 30 de Septiembre de 2019","LECTEMATIC":"N.A","LECTIPOFOR":"GRAN ","LECDIMMURO":"N.A","LECCODIDRD":"N.A","LECIMAGEN1":"N.A","LECIMAGEN2":"N.A","LECIMAGEN3":"N.A","LECIMAGEN4":"N.A","LECIMAGEN5":"N.A","LECNOMARTI":"LAVAMOATUMBÁ","LECTITOBRA":"PAZ-A LA CALLE","LECNOMPRO":"BECA “MURALES PARA LA CONVIVENCIA”"}},{"type":"Feature","id":68,"geometry":{"type":"Point","coordinates":[-74.20547982868726,4.635837445430112]},"properties":{"OBJECTID":68,"LECCODIGO":68,"LECDIRECCI":"KR 102 No. 72 - 47 Sur","LECCODLOC":"7","LECNOMLOC":"Bosa","LECANIO":"2019","LECUBICACI":"Cr 102 # 72 - 47 Sur","LECOBSERV":"Resolucion 550 de 30 de Septiembre de 2019","LECTEMATIC":"N.A","LECTIPOFOR":"PEQUEÑO ","LECDIMMURO":"N.A","LECCODIDRD":"N.A","LECIMAGEN1":"N.A","LECIMAGEN2":"N.A","LECIMAGEN3":"N.A","LECIMAGEN4":"N.A","LECIMAGEN5":"N.A","LECNOMARTI":"COLECTIVO TIMIZA","LECTITOBRA":"COLORES NATURALES","LECNOMPRO":"BECA “MURALES PARA LA CONVIVENCIA”"}},{"type":"Feature","id":69,"geometry":{"type":"Point","coordinates":[-74.15248233689172,4.60232798550209]},"properties":{"OBJECTID":69,"LECCODIGO":69,"LECDIRECCI":"Cl 48 B Sur No. 72 K - 13","LECCODLOC":"8","LECNOMLOC":"Kennedy","LECANIO":"2019","LECUBICACI":"Cl 48B Sur # 72K - 13","LECOBSERV":"Resolucion 550 de 30 de Septiembre de 2019","LECTEMATIC":"N.A","LECTIPOFOR":"MEDIANO ","LECDIMMURO":"N.A","LECCODIDRD":"N.A","LECIMAGEN1":"N.A","LECIMAGEN2":"N.A","LECIMAGEN3":"N.A","LECIMAGEN4":"N.A","LECIMAGEN5":"N.A","LECNOMARTI":"KRIME AND CULTURE (KAC)","LECTITOBRA":"POLICROMATICOS","LECNOMPRO":"BECA “MURALES PARA LA CONVIVENCIA”"}},{"type":"Feature","id":70,"geometry":{"type":"Point","coordinates":[-74.1378775557486,4.604763471150231]},"properties":{"OBJECTID":70,"LECCODIGO":70,"LECDIRECCI":"KR 68 G No. 38 I - 05 SUR","LECCODLOC":"8","LECNOMLOC":"Kennedy","LECANIO":"2019","LECUBICACI":"CARRERA 68G CON CALLE 38i SUR","LECOBSERV":"Resolucion 550 de 30 de Septiembre de 2019","LECTEMATIC":"N.A","LECTIPOFOR":"GRAN ","LECDIMMURO":"N.A","LECCODIDRD":"N.A","LECIMAGEN1":"N.A","LECIMAGEN2":"N.A","LECIMAGEN3":"N.A","LECIMAGEN4":"N.A","LECIMAGEN5":"N.A","LECNOMARTI":"SAINTCATCREW","LECTITOBRA":"CADÁVER EXQUISITO: CRÓNICAS COMUNITARIAS HECHAS ARTE PARA LA PAZ","LECNOMPRO":"BECA “MURALES PARA LA CONVIVENCIA”"}},{"type":"Feature","id":71,"geometry":{"type":"Point","coordinates":[-74.14557385128404,4.592802557182297]},"properties":{"OBJECTID":71,"LECCODIGO":71,"LECDIRECCI":"DG 49 No. 56 A - 05 SUR","LECCODLOC":"6","LECNOMLOC":"Tunjuelito","LECANIO":"2019","LECUBICACI":"DIAGONAL 49 POR CARRERA 56A SUR","LECOBSERV":"Resolucion 550 de 30 de Septiembre de 2019","LECTEMATIC":"N.A","LECTIPOFOR":"MEDIANO ","LECDIMMURO":"N.A","LECCODIDRD":"N.A","LECIMAGEN1":"N.A","LECIMAGEN2":"N.A","LECIMAGEN3":"N.A","LECIMAGEN4":"N.A","LECIMAGEN5":"N.A","LECNOMARTI":"COLECTIVO INTEGRANDO ARTE","LECTITOBRA":"FESTIVAL RECREO ARTÍSTICO   “PARTICIPARTE”","LECNOMPRO":"BECA “MURALES PARA LA CONVIVENCIA”"}},{"type":"Feature","id":72,"geometry":{"type":"Point","coordinates":[-74.16112856131426,4.634111658015455]},"properties":{"OBJECTID":72,"LECCODIGO":72,"LECDIRECCI":"DG 38 Sur No. 80 - 50","LECCODLOC":"8","LECNOMLOC":"Kennedy","LECANIO":"2019","LECUBICACI":"Dg 38 Sur Entre Cr 80 y Av. Ciudad de Cali","LECOBSERV":"Resolucion 550 de 30 de Septiembre de 2019","LECTEMATIC":"N.A","LECTIPOFOR":"GRAN ","LECDIMMURO":"N.A","LECCODIDRD":"N.A","LECIMAGEN1":"N.A","LECIMAGEN2":"N.A","LECIMAGEN3":"N.A","LECIMAGEN4":"N.A","LECIMAGEN5":"N.A","LECNOMARTI":"BBCOLECTIVE","LECTITOBRA":"MI BARRIO IDEAL","LECNOMPRO":"BECA “MURALES PARA LA CONVIVENCIA”"}},{"type":"Feature","id":73,"geometry":{"type":"Point","coordinates":[-74.03027750373036,4.707518539112168]},"properties":{"OBJECTID":73,"LECCODIGO":73,"LECDIRECCI":"Cl 128 No. 7 B - 50","LECCODLOC":"1","LECNOMLOC":"Usaquén","LECANIO":"2019","LECUBICACI":"Cl 128 Con Cra 7B y 7C","LECOBSERV":"Resolucion 550 de 30 de Septiembre de 2019","LECTEMATIC":"N.A","LECTIPOFOR":"PEQUEÑO ","LECDIMMURO":"N.A","LECCODIDRD":"N.A","LECIMAGEN1":"N.A","LECIMAGEN2":"N.A","LECIMAGEN3":"N.A","LECIMAGEN4":"N.A","LECIMAGEN5":"N.A","LECNOMARTI":"LAZOS ARTISTICOS","LECTITOBRA":"TRAZOS DE CONVIVENCIA","LECNOMPRO":"BECA “MURALES PARA LA CONVIVENCIA”"}},{"type":"Feature","id":74,"geometry":{"type":"Point","coordinates":[-74.16112856131426,4.634111658015455]},"properties":{"OBJECTID":74,"LECCODIGO":74,"LECDIRECCI":"DG 38 Sur No. 80 - 50","LECCODLOC":"8","LECNOMLOC":"Kennedy","LECANIO":"2019","LECUBICACI":"Dg 38 Sur Entre Cr 80 y Av. Ciudad de Cali","LECOBSERV":"Resolucion 550 de 30 de Septiembre de 2019","LECTEMATIC":"N.A","LECTIPOFOR":"GRAN ","LECDIMMURO":"N.A","LECCODIDRD":"N.A","LECIMAGEN1":"N.A","LECIMAGEN2":"N.A","LECIMAGEN3":"N.A","LECIMAGEN4":"N.A","LECIMAGEN5":"N.A","LECNOMARTI":"ESCARABAJOS CREW","LECTITOBRA":"¡TOMA LO TUYO!","LECNOMPRO":"BECA “MURALES PARA LA CONVIVENCIA”"}},{"type":"Feature","id":75,"geometry":{"type":"Point","coordinates":[-74.09183780957767,4.576396420040012]},"properties":{"OBJECTID":75,"LECCODIGO":75,"LECDIRECCI":"Cl 18 Sur No. 8 A - 05","LECCODLOC":"4","LECNOMLOC":"San Cristóbal","LECANIO":"2019","LECUBICACI":"Cl 18 Sur # 8A - 05","LECOBSERV":"Resolucion 550 de 30 de Septiembre de 2019","LECTEMATIC":"N.A","LECTIPOFOR":"GRAN ","LECDIMMURO":"N.A","LECCODIDRD":"N.A","LECIMAGEN1":"N.A","LECIMAGEN2":"N.A","LECIMAGEN3":"N.A","LECIMAGEN4":"N.A","LECIMAGEN5":"N.A","LECNOMARTI":"UMS STREET ART","LECTITOBRA":"COLORES COMUNES","LECNOMPRO":"BECA “MURALES PARA LA CONVIVENCIA”"}},{"type":"Feature","id":76,"geometry":{"type":"Point","coordinates":[-74.05224521201373,4.643257353603199]},"properties":{"OBJECTID":76,"LECCODIGO":76,"LECDIRECCI":"TV 4 B Este No. 62 - 05","LECCODLOC":"2","LECNOMLOC":"Chapinero","LECANIO":"2019","LECUBICACI":"TRANSVERSAL 4B ESTE CON CALLÉ 62","LECOBSERV":"Resolucion 550 de 30 de Septiembre de 2019","LECTEMATIC":"N.A","LECTIPOFOR":"PEQUEÑO ","LECDIMMURO":"N.A","LECCODIDRD":"N.A","LECIMAGEN1":"N.A","LECIMAGEN2":"N.A","LECIMAGEN3":"N.A","LECIMAGEN4":"N.A","LECIMAGEN5":"N.A","LECNOMARTI":"BOGOTA PAINT TEAM","LECTITOBRA":"DE LA MANO DEL ARTE Y LA COMUNIDAD","LECNOMPRO":"BECA “MURALES PARA LA CONVIVENCIA”"}},{"type":"Feature","id":77,"geometry":{"type":"Point","coordinates":[-74.07846561042913,4.594668141717429]},"properties":{"OBJECTID":77,"LECCODIGO":77,"LECDIRECCI":"KR 8 No. 6 A - 58","LECCODLOC":"17","LECNOMLOC":"La Candelaria","LECANIO":"2019","LECUBICACI":"Cr 8 # 6A - 58","LECOBSERV":"Resolucion 550 de 30 de Septiembre de 2019","LECTEMATIC":"N.A","LECTIPOFOR":"PEQUEÑO ","LECDIMMURO":"N.A","LECCODIDRD":"N.A","LECIMAGEN1":"N.A","LECIMAGEN2":"N.A","LECIMAGEN3":"N.A","LECIMAGEN4":"N.A","LECIMAGEN5":"N.A","LECNOMARTI":"CREACTIVOS","LECTITOBRA":"SÍMBOLO DE CONVIVENCIA","LECNOMPRO":"BECA “MURALES PARA LA CONVIVENCIA”"}},{"type":"Feature","id":78,"geometry":{"type":"Point","coordinates":[-74.14936225255138,4.6023221455808345]},"properties":{"OBJECTID":78,"LECCODIGO":78,"LECDIRECCI":"Cl 45 Sur No. 72 I - 21","LECCODLOC":"8","LECNOMLOC":"Kennedy","LECANIO":"2019","LECUBICACI":"Cl 45 Sur con Cra 72i - 21","LECOBSERV":"Resolucion 550 de 30 de Septiembre de 2019","LECTEMATIC":"N.A","LECTIPOFOR":"GRAN ","LECDIMMURO":"N.A","LECCODIDRD":"N.A","LECIMAGEN1":"N.A","LECIMAGEN2":"N.A","LECIMAGEN3":"N.A","LECIMAGEN4":"N.A","LECIMAGEN5":"N.A","LECNOMARTI":"TRES PUNTOS","LECTITOBRA":"EL ESPACIO QUE QUEREMOS","LECNOMPRO":"BECA “MURALES PARA LA CONVIVENCIA”"}},{"type":"Feature","id":79,"geometry":{"type":"Point","coordinates":[-74.10377177900686,4.590331697725283]},"properties":{"OBJECTID":79,"LECCODIGO":79,"LECDIRECCI":"KR 24 B No. 16 - 03 SUR","LECCODLOC":"15","LECNOMLOC":"Antonio Nariño.","LECANIO":"2019","LECUBICACI":"CARRERA 24 b # 16 - 03 SUR","LECOBSERV":"Resolucion 550 de 30 de Septiembre de 2019","LECTEMATIC":"N.A","LECTIPOFOR":"GRAN ","LECDIMMURO":"N.A","LECCODIDRD":"N.A","LECIMAGEN1":"N.A","LECIMAGEN2":"N.A","LECIMAGEN3":"N.A","LECIMAGEN4":"N.A","LECIMAGEN5":"N.A","LECNOMARTI":"SOLARIS GAMES","LECTITOBRA":"ARTE Y MURALISMO PARA LA CONVIVENCIA","LECNOMPRO":"BECA “MURALES PARA LA CONVIVENCIA”"}},{"type":"Feature","id":80,"geometry":{"type":"Point","coordinates":[-74.16112856131426,4.634111658015455]},"properties":{"OBJECTID":80,"LECCODIGO":80,"LECDIRECCI":"DG 38 Sur No. 80 - 50","LECCODLOC":"8","LECNOMLOC":"Kennedy","LECANIO":"2019","LECUBICACI":"Dg 38 Sur Entre Cr 80 y Av. Ciudad de Cali","LECOBSERV":"Resolucion 550 de 30 de Septiembre de 2019","LECTEMATIC":"N.A","LECTIPOFOR":"GRAN ","LECDIMMURO":"N.A","LECCODIDRD":"N.A","LECIMAGEN1":"N.A","LECIMAGEN2":"N.A","LECIMAGEN3":"N.A","LECIMAGEN4":"N.A","LECIMAGEN5":"N.A","LECNOMARTI":"NAKUMA CULTURA CREATIVA","LECTITOBRA":"QUYQUYS - RECONOCIMIENTO DE LA DIVERSIDAD PARA LA CONVIVENCIA.","LECNOMPRO":"BECA “MURALES PARA LA CONVIVENCIA”"}},{"type":"Feature","id":81,"geometry":{"type":"Point","coordinates":[-74.19677646602278,4.607990358483737]},"properties":{"OBJECTID":81,"LECCODIGO":81,"LECDIRECCI":"CL 72 A SUR No. 80 J - 20","LECCODLOC":"7","LECNOMLOC":"Bosa","LECANIO":"2019","LECUBICACI":"CALLE 72 A SUR No. 80 J - 20,","LECOBSERV":"Resolucion 550 de 30 de Septiembre de 2019","LECTEMATIC":"N.A","LECTIPOFOR":"MEDIANO ","LECDIMMURO":"N.A","LECCODIDRD":"N.A","LECIMAGEN1":"N.A","LECIMAGEN2":"N.A","LECIMAGEN3":"N.A","LECIMAGEN4":"N.A","LECIMAGEN5":"N.A","LECNOMARTI":"TERABIKE","LECTITOBRA":"PINCELADAS POR MI BARRIO","LECNOMPRO":"BECA “MURALES PARA LA CONVIVENCIA”"}},{"type":"Feature","id":82,"geometry":{"type":"Point","coordinates":[-74.09267332633523,4.721346391569934]},"properties":{"OBJECTID":82,"LECCODIGO":82,"LECDIRECCI":"KR 92 C No. 127 D - 78","LECCODLOC":"11","LECNOMLOC":"Suba","LECANIO":"2019","LECUBICACI":"CARRERA 92 C # 127 D - 78","LECOBSERV":"Resolucion 550 de 30 de Septiembre de 2019","LECTEMATIC":"N.A","LECTIPOFOR":"PEQUEÑO ","LECDIMMURO":"N.A","LECCODIDRD":"N.A","LECIMAGEN1":"N.A","LECIMAGEN2":"N.A","LECIMAGEN3":"N.A","LECIMAGEN4":"N.A","LECIMAGEN5":"N.A","LECNOMARTI":"COLECTIVO INLAKESH","LECTITOBRA":"LA HERENCIA DE LOS SABIOS","LECNOMPRO":"BECA “MURALES PARA LA CONVIVENCIA”"}},{"type":"Feature","id":83,"geometry":{"type":"Point","coordinates":[-74.14127660022234,4.715260850260606]},"properties":{"OBJECTID":83,"LECCODIGO":83,"LECDIRECCI":"KR 122 A No. 64 C - 05","LECCODLOC":"10","LECNOMLOC":"Engativá","LECANIO":"2019","LECUBICACI":"CARRERA 122A CON CALLE 64 C","LECOBSERV":"Resolucion 550 de 30 de Septiembre de 2019","LECTEMATIC":"N.A","LECTIPOFOR":"MEDIANO ","LECDIMMURO":"N.A","LECCODIDRD":"N.A","LECIMAGEN1":"N.A","LECIMAGEN2":"N.A","LECIMAGEN3":"N.A","LECIMAGEN4":"N.A","LECIMAGEN5":"N.A","LECNOMARTI":"COLECTIVO TURQUESA","LECTITOBRA":"CONTRASTES","LECNOMPRO":"BECA “MURALES PARA LA CONVIVENCIA”"}},{"type":"Feature","id":84,"geometry":{"type":"Point","coordinates":[-74.09622427412688,4.546943884748211]},"properties":{"OBJECTID":84,"LECCODIGO":84,"LECDIRECCI":"KR 3 ESTE No. 43 C - 21","LECCODLOC":"4","LECNOMLOC":"San Cristóbal","LECANIO":"2019","LECUBICACI":"CARRERA 3 ESTE # 43C-21 SUR,","LECOBSERV":"Resolucion 550 de 30 de Septiembre de 2019","LECTEMATIC":"N.A","LECTIPOFOR":"MEDIANO ","LECDIMMURO":"N.A","LECCODIDRD":"N.A","LECIMAGEN1":"N.A","LECIMAGEN2":"N.A","LECIMAGEN3":"N.A","LECIMAGEN4":"N.A","LECIMAGEN5":"N.A","LECNOMARTI":"CEGATONA","LECTITOBRA":"PRISMAS COMUNIDAD, VIDRIOS Y LADRILLOS","LECNOMPRO":"BECA “MURALES PARA LA CONVIVENCIA”"}},{"type":"Feature","id":85,"geometry":{"type":"Point","coordinates":[-74.0643375481393,4.644579676988601]},"properties":{"OBJECTID":85,"LECCODIGO":85,"LECDIRECCI":"KR 13 No. 58  - 05","LECCODLOC":"2","LECNOMLOC":"Chapinero","LECANIO":"2019","LECUBICACI":"CARRERA 13 No. 58 esquina (costado occidental)","LECOBSERV":"Resolucion 550 de 30 de Septiembre de 2019","LECTEMATIC":"N.A","LECTIPOFOR":"PEQUEÑO ","LECDIMMURO":"N.A","LECCODIDRD":"N.A","LECIMAGEN1":"N.A","LECIMAGEN2":"N.A","LECIMAGEN3":"N.A","LECIMAGEN4":"N.A","LECIMAGEN5":"N.A","LECNOMARTI":"INZANE TOYZ CREW","LECTITOBRA":"ART-MONIA DEL COLOR","LECNOMPRO":"BECA “MURALES PARA LA CONVIVENCIA”"}},{"type":"Feature","id":86,"geometry":{"type":"Point","coordinates":[-74.11159415758401,4.691442261063646]},"properties":{"OBJECTID":86,"LECCODIGO":86,"LECDIRECCI":"KR 89 No. 66 A - 14","LECCODLOC":"10","LECNOMLOC":"Engativá","LECANIO":"2019","LECUBICACI":"Cr 89 # 66A - 14","LECOBSERV":"Resolucion 550 de 30 de Septiembre de 2019","LECTEMATIC":"N.A","LECTIPOFOR":"PEQUEÑO ","LECDIMMURO":"N.A","LECCODIDRD":"N.A","LECIMAGEN1":"N.A","LECIMAGEN2":"N.A","LECIMAGEN3":"N.A","LECIMAGEN4":"N.A","LECIMAGEN5":"N.A","LECNOMARTI":"C22","LECTITOBRA":"VIRTUDES","LECNOMPRO":"BECA “MURALES PARA LA CONVIVENCIA”"}},{"type":"Feature","id":87,"geometry":{"type":"Point","coordinates":[-74.06668321463617,4.684670213816256]},"properties":{"OBJECTID":87,"LECCODIGO":87,"LECDIRECCI":"TV 60 No. 95 - 51","LECCODLOC":"12","LECNOMLOC":"Barrios Unidos","LECANIO":"2019","LECUBICACI":"TRANSVERSAL 60 No. 95 - 51","LECOBSERV":"Resolucion 550 de 30 de Septiembre de 2019","LECTEMATIC":"N.A","LECTIPOFOR":"PEQUEÑO ","LECDIMMURO":"N.A","LECCODIDRD":"N.A","LECIMAGEN1":"N.A","LECIMAGEN2":"N.A","LECIMAGEN3":"N.A","LECIMAGEN4":"N.A","LECIMAGEN5":"N.A","LECNOMARTI":"NOWK","LECTITOBRA":"LETRA RECURSIVA","LECNOMPRO":"BECA “MURALES PARA LA CONVIVENCIA”"}},{"type":"Feature","id":88,"geometry":{"type":"Point","coordinates":[-74.08031313055824,4.672012246622824]},"properties":{"OBJECTID":88,"LECCODIGO":88,"LECDIRECCI":"Cl 70 D No. 59 A - 11","LECCODLOC":"12","LECNOMLOC":"Barrios Unidos","LECANIO":"2019","LECUBICACI":"Cl 70D # 59 A - 11","LECOBSERV":"Resolucion 550 de 30 de Septiembre de 2019","LECTEMATIC":"N.A","LECTIPOFOR":"PEQUEÑO ","LECDIMMURO":"N.A","LECCODIDRD":"N.A","LECIMAGEN1":"N.A","LECIMAGEN2":"N.A","LECIMAGEN3":"N.A","LECIMAGEN4":"N.A","LECIMAGEN5":"N.A","LECNOMARTI":"ABYA YALA","LECTITOBRA":"ANCESTRAL GRAFF","LECNOMPRO":"BECA “MURALES PARA LA CONVIVENCIA”"}},{"type":"Feature","id":89,"geometry":{"type":"Point","coordinates":[-74.09948912736516,4.728876943703735]},"properties":{"OBJECTID":89,"LECCODIGO":89,"LECDIRECCI":"Cl 128 D Bis No. 101 - 02","LECCODLOC":"11","LECNOMLOC":"Suba","LECANIO":"2019","LECUBICACI":"Cl 128D Bis # 101 - 02","LECOBSERV":"Resolucion 550 de 30 de Septiembre de 2019","LECTEMATIC":"N.A","LECTIPOFOR":"PEQUEÑO ","LECDIMMURO":"N.A","LECCODIDRD":"N.A","LECIMAGEN1":"N.A","LECIMAGEN2":"N.A","LECIMAGEN3":"N.A","LECIMAGEN4":"N.A","LECIMAGEN5":"N.A","LECNOMARTI":"GRUPO CULTURAL D11","LECTITOBRA":"BARRIO  SEMPITERNO CREACIÓN COLECTIVA","LECNOMPRO":"BECA “MURALES PARA LA CONVIVENCIA”"}},{"type":"Feature","id":90,"geometry":{"type":"Point","coordinates":[-74.12952687615623,4.559215772874504]},"properties":{"OBJECTID":90,"LECCODIGO":90,"LECDIRECCI":"KR 12 B No. 58 A - 34 Sur","LECCODLOC":"6","LECNOMLOC":"Tunjuelito","LECANIO":"2019","LECUBICACI":"Cr 12B # 58A - 34 Sur","LECOBSERV":"Resolucion 550 de 30 de Septiembre de 2019","LECTEMATIC":"N.A","LECTIPOFOR":"MEDIANO ","LECDIMMURO":"N.A","LECCODIDRD":"N.A","LECIMAGEN1":"N.A","LECIMAGEN2":"N.A","LECIMAGEN3":"N.A","LECIMAGEN4":"N.A","LECIMAGEN5":"N.A","LECNOMARTI":"PIGMENTO 33","LECTITOBRA":"INTRAMUROS","LECNOMPRO":"BECA “MURALES PARA LA CONVIVENCIA”"}},{"type":"Feature","id":91,"geometry":{"type":"Point","coordinates":[-74.08070729423692,4.546242531913023]},"properties":{"OBJECTID":91,"LECCODIGO":91,"LECDIRECCI":"Cl 41 B Sur No. 16 A - 15 Este","LECCODLOC":"4","LECNOMLOC":"San Cristóbal","LECANIO":"2019","LECUBICACI":"Cl 41B Sur # 16A - 15 Este","LECOBSERV":"Resolucion 550 de 30 de Septiembre de 2019","LECTEMATIC":"N.A","LECTIPOFOR":"MEDIANO ","LECDIMMURO":"N.A","LECCODIDRD":"N.A","LECIMAGEN1":"N.A","LECIMAGEN2":"N.A","LECIMAGEN3":"N.A","LECIMAGEN4":"N.A","LECIMAGEN5":"N.A","LECNOMARTI":"BOGOTARROSCREW","LECTITOBRA":"PINTANDO SUEÑOS POR BACATÁ","LECNOMPRO":"BECA “MURALES PARA LA CONVIVENCIA”"}},{"type":"Feature","id":92,"geometry":{"type":"Point","coordinates":[-74.13026133334265,4.601175995187388]},"properties":{"OBJECTID":92,"LECCODIGO":92,"LECDIRECCI":"Cl 38 Sur No. 52 - 05","LECCODLOC":"16","LECNOMLOC":"Puente Aranda","LECANIO":"2019","LECUBICACI":"Cl 38 Sur # 52","LECOBSERV":"Resolucion 550 de 30 de Septiembre de 2019","LECTEMATIC":"N.A","LECTIPOFOR":"PEQUEÑO ","LECDIMMURO":"N.A","LECCODIDRD":"N.A","LECIMAGEN1":"N.A","LECIMAGEN2":"N.A","LECIMAGEN3":"N.A","LECIMAGEN4":"N.A","LECIMAGEN5":"N.A","LECNOMARTI":"BICITERRITORIALIZANDO","LECTITOBRA":"​EL BARRIO ES NUESTRO, EL BARRIO ES BELLO","LECNOMPRO":"BECA “MURALES PARA LA CONVIVENCIA”"}},{"type":"Feature","id":93,"geometry":{"type":"Point","coordinates":[-74.1249126231055,4.557649196202757]},"properties":{"OBJECTID":93,"LECCODIGO":93,"LECDIRECCI":"Cl 53 A Sur No. 10 A - 17","LECCODLOC":"6","LECNOMLOC":"Tunjuelito","LECANIO":"2019","LECUBICACI":"Cl 53A Sur con Carrera  10 A - 17","LECOBSERV":"Resolucion 550 de 30 de Septiembre de 2019","LECTEMATIC":"N.A","LECTIPOFOR":"MEDIANO ","LECDIMMURO":"N.A","LECCODIDRD":"N.A","LECIMAGEN1":"N.A","LECIMAGEN2":"N.A","LECIMAGEN3":"N.A","LECIMAGEN4":"N.A","LECIMAGEN5":"N.A","LECNOMARTI":"COLECTIVO JUVENIL UNIDOS POR EL CAMBIO","LECTITOBRA":"KENNEDY ART","LECNOMPRO":"BECA “MURALES PARA LA CONVIVENCIA”"}},{"type":"Feature","id":94,"geometry":{"type":"Point","coordinates":[-74.13885904694321,4.6067710628646035]},"properties":{"OBJECTID":94,"LECCODIGO":94,"LECDIRECCI":"KR 68 L No. 37 D - 38 Sur","LECCODLOC":"8","LECNOMLOC":"Kennedy","LECANIO":"2019","LECUBICACI":"Cr 68 L # 37D - 38 Sur","LECOBSERV":"Resolucion 550 de 30 de Septiembre de 2019","LECTEMATIC":"N.A","LECTIPOFOR":"PEQUEÑO ","LECDIMMURO":"N.A","LECCODIDRD":"N.A","LECIMAGEN1":"N.A","LECIMAGEN2":"N.A","LECIMAGEN3":"N.A","LECIMAGEN4":"N.A","LECIMAGEN5":"N.A","LECNOMARTI":"FULL COLOR CREW","LECTITOBRA":"MI BARRIO MI CASA","LECNOMPRO":"BECA “MURALES PARA LA CONVIVENCIA”"}},{"type":"Feature","id":95,"geometry":{"type":"Point","coordinates":[-74.03279012212278,4.757789635103649]},"properties":{"OBJECTID":95,"LECCODIGO":95,"LECDIRECCI":"KR 10 B No. 181 - 44","LECCODLOC":"1","LECNOMLOC":"Usaquén","LECANIO":"2019","LECUBICACI":"Cr 10B # 181 - 44","LECOBSERV":"Resolucion 550 de 30 de Septiembre de 2019","LECTEMATIC":"N.A","LECTIPOFOR":"PEQUEÑO ","LECDIMMURO":"N.A","LECCODIDRD":"N.A","LECIMAGEN1":"N.A","LECIMAGEN2":"N.A","LECIMAGEN3":"N.A","LECIMAGEN4":"N.A","LECIMAGEN5":"N.A","LECNOMARTI":"CUBOSCURO","LECTITOBRA":"VECINDARIO","LECNOMPRO":"BECA “MURALES PARA LA CONVIVENCIA”"}},{"type":"Feature","id":96,"geometry":{"type":"Point","coordinates":[-74.08647726134171,4.726572535720957]},"properties":{"OBJECTID":96,"LECCODIGO":96,"LECDIRECCI":"CL 130 B BIS No. 88 A - 27 / 51","LECCODLOC":"11","LECNOMLOC":"Suba","LECANIO":"2019","LECUBICACI":"CALLE 130 B BIS No. 88 A -27/51","LECOBSERV":"Resolucion 550 de 30 de Septiembre de 2019","LECTEMATIC":"N.A","LECTIPOFOR":"PEQUEÑO ","LECDIMMURO":"N.A","LECCODIDRD":"N.A","LECIMAGEN1":"N.A","LECIMAGEN2":"N.A","LECIMAGEN3":"N.A","LECIMAGEN4":"N.A","LECIMAGEN5":"N.A","LECNOMARTI":"DEGUANTES","LECTITOBRA":"TONO DE BARRIO","LECNOMPRO":"BECA “MURALES PARA LA CONVIVENCIA”"}}]}
